{
"type": "FeatureCollection",
"name": "41_42",
"crs": { "type": "name", "properties": { "name": "urn:ogc:def:crs:OGC:1.3:CRS84" } },
"features": [
{ "type": "Feature", "properties": { "Month": "December", "Day": 8, "Year": 1941, "Name of Vesselssel": "AWAJISAN MARU", "Type of Vessel": "Passenger-Cargo", "Standard T": 9794, "Latitude": "6-03N", "Longitude": "102-16E", "Flag of Aggressor": "Australia", "Type of Aggressiongression": "Aircraft", "Assessment": "Sunk", "URL": "https://en.wikipedia.org/wiki/MS_Awazisan_Maru\n" }, "geometry": { "type": "Point", "coordinates": [ 102.266666666666666, 6.05 ] } },
{ "type": "Feature", "properties": { "Month": "December", "Day": 10, "Year": 1941, "Name of Vessel": "TAKAO MARU", "Type of Vessel": "Passenger-Cargo", "Standard T": 4281, "Latitude": "17-29N", "Longitude": "120-26E", "Flag of Aggressor": "United States", "Type of Aggression": "Army Aircraft, U.S. Sabotage", "Assessment": "Sunk", "URL": "https://en.wikipedia.org/wiki/SS_Takao_Maru_(1927)\n" }, "geometry": { "type": "Point", "coordinates": [ 120.433333333333337, 17.483333333333334 ] } },
{ "type": "Feature", "properties": { "Month": "December", "Day": 12, "Year": 1941, "Name of Vessel": "TORO MARU", "Type of Vessel": "Cargo", "Standard T": 1939, "Latitude": "6-08N", "Longitude": "102-16E", "Flag of Aggressor": "Netherlands", "Type of Aggression": "Submarine", "Assessment": "Sunk", "URL": null }, "geometry": { "type": "Point", "coordinates": [ 102.266666666666666, 6.133333333333334 ] } },
{ "type": "Feature", "properties": { "Month": "December", "Day": 16, "Year": 1941, "Name of Vessel": "ATSUTASAN MARU", "Type of Vessel": "Cargo", "Standard T": 8662, "Latitude": "18-06N", "Longitude": "109-44E", "Flag of Aggressor": "United States", "Type of Aggression": "Submarine", "Assessment": "Sunk", "URL": "https://en.wikipedia.org/wiki/USS_Swordfish_(SS-193)\n" }, "geometry": { "type": "Point", "coordinates": [ 109.733333333333334, 18.1 ] } },
{ "type": "Feature", "properties": { "Month": "December", "Day": 22, "Year": 1941, "Name of Vessel": "HAYO MARU", "Type of Vessel": "Cargo", "Standard T": 5445, "Latitude": "16-37N", "Longitude": "120-17E", "Flag of Aggressor": "United States", "Type of Aggression": "Submarine", "Assessment": "Sunk", "URL": "www.combinedfleet.com/Hayo_t.htm\n" }, "geometry": { "type": "Point", "coordinates": [ 120.283333333333331, 16.616666666666667 ] } },
{ "type": "Feature", "properties": { "Month": "December", "Day": 23, "Year": 1941, "Name of Vessel": "HAYATAKA MARU", "Type of Vessel": "Cargo", "Standard T": 856, "Latitude": "17-35N", "Longitude": "120-12E", "Flag of Aggressor": "United States", "Type of Aggression": "Submarine", "Assessment": "Sunk", "URL": "https://en.wikipedia.org/wiki/USS_Seal_(SS-183)\n" }, "geometry": { "type": "Point", "coordinates": [ 120.2, 17.583333333333332 ] } },
{ "type": "Feature", "properties": { "Month": "December", "Day": 23, "Year": 1941, "Name of Vessel": "KATORI MARU", "Type of Vessel": "Cargo", "Standard T": 9849, "Latitude": "2-30N", "Longitude": "110-00E", "Flag of Aggressor": "Netherlands", "Type of Aggression": "Submarine", "Assessment": "Sunk", "URL": null }, "geometry": { "type": "Point", "coordinates": [ 110.0, 2.5 ] } },
{ "type": "Feature", "properties": { "Month": "December", "Day": 23, "Year": 1941, "Name of Vessel": "HIE MARU", "Type of Vessel": "Passenger-Cargo", "Standard T": 4943, "Latitude": "2-30N", "Longitude": "110-00E", "Flag of Aggressor": "Netherlands", "Type of Aggression": "Submarine", "Assessment": "Sunk", "URL": null }, "geometry": { "type": "Point", "coordinates": [ 110.0, 2.5 ] } },
{ "type": "Feature", "properties": { "Month": "January", "Day": 1, "Year": 1942, "Name of Vessel": "TEIUN MARU", "Type of Vessel": "Cargo", "Standard T": 1615, "Latitude": "16-05N", "Longitude": "120-20E", "Flag of Aggressor": "Japan", "Type of Aggression": "Mine", "Assessment": "Sunk", "URL": null }, "geometry": { "type": "Point", "coordinates": [ 120.333333333333329, 16.083333333333332 ] } },
{ "type": "Feature", "properties": { "Month": "January", "Day": 7, "Year": 1942, "Name of Vessel": "UNKAI MARU NO 1", "Type of Vessel": "Cargo", "Standard T": 2225, "Latitude": "34-27N", "Longitude": "138-59E", "Flag of Aggressor": "United States", "Type of Aggression": "Submarine", "Assessment": "Sunk", "URL": "www.combinedfleet.com/Unkai1_c.htm\n" }, "geometry": { "type": "Point", "coordinates": [ 138.98333333333332, 34.45 ] } },
{ "type": "Feature", "properties": { "Month": "January", "Day": 9, "Year": 1942, "Name of Vessel": "TEIAN MARU", "Type of Vessel": "Cargo", "Standard T": 5387, "Latitude": "35-00N", "Longitude": "140-36E", "Flag of Aggressor": "United States", "Type of Aggression": "Submarine", "Assessment": "Sunk", "URL": null }, "geometry": { "type": "Point", "coordinates": [ 140.6, 35.0 ] } },
{ "type": "Feature", "properties": { "Month": "January", "Day": 10, "Year": 1942, "Name of Vessel": "AKITA MARU", "Type of Vessel": "Passenger-Cargo", "Standard T": 3817, "Latitude": "7-40N", "Longitude": "102-50E", "Flag of Aggressor": "Netherlands", "Type of Aggression": "Submarine", "Assessment": "Sunk", "URL": null }, "geometry": { "type": "Point", "coordinates": [ 102.833333333333329, 7.666666666666667 ] } },
{ "type": "Feature", "properties": { "Month": "January", "Day": 10, "Year": 1942, "Name of Vessel": "KANKO MARU", "Type of Vessel": "Converted Gunboat", "Standard T": 2929, "Latitude": "6-12N", "Longitude": "125-55E", "Flag of Aggressor": "United States", "Type of Aggression": "Submarine", "Assessment": "Sunk", "URL": null }, "geometry": { "type": "Point", "coordinates": [ 125.916666666666671, 6.2 ] } },
{ "type": "Feature", "properties": { "Month": "January", "Day": 10, "Year": 1942, "Name of Vessel": "HARBIN MARU", "Type of Vessel": "Transport", "Standard T": 5167, "Latitude": "17-40N", "Longitude": "109-20E", "Flag of Aggressor": "United States", "Type of Aggression": "Submarine", "Assessment": "Sunk", "URL": null }, "geometry": { "type": "Point", "coordinates": [ 109.333333333333329, 17.666666666666668 ] } },
{ "type": "Feature", "properties": { "Month": "January", "Day": 18, "Year": 1942, "Name of Vessel": "EIZAN MARU", "Type of Vessel": "Cargo", "Standard T": 4702, "Latitude": "33-30N", "Longitude": "135-00E", "Flag of Aggressor": "United States", "Type of Aggression": "Submarine", "Assessment": "Sunk", "URL": null }, "geometry": { "type": "Point", "coordinates": [ 135.0, 33.5 ] } },
{ "type": "Feature", "properties": { "Month": "January", "Day": 24, "Year": 1942, "Name of Vessel": "KURETAKE MARU", "Type of Vessel": "Cargo", "Standard T": 5175, "Latitude": "00-10N", "Longitude": "118-00E", "Flag of Aggressor": "United States", "Type of Aggression": "Surface Craft", "Assessment": "Sunk", "URL": null }, "geometry": { "type": "Point", "coordinates": [ 118.0, 0.166666666666667 ] } },
{ "type": "Feature", "properties": { "Month": "January", "Day": 24, "Year": 1942, "Name of Vessel": "TSURUGA MARU", "Type of Vessel": "Passenger-Cargo", "Standard T": 6988, "Latitude": "00-10N", "Longitude": "118-00E", "Flag of Aggressor": "United States", "Type of Aggression": "Surface Craft", "Assessment": "Sunk", "URL": null }, "geometry": { "type": "Point", "coordinates": [ 118.0, 0.166666666666667 ] } },
{ "type": "Feature", "properties": { "Month": "January", "Day": 24, "Year": 1942, "Name of Vessel": "TATSUKAMI MARU", "Type of Vessel": "Passenger-Cargo", "Standard T": 7064, "Latitude": "00-10N", "Longitude": "118-00E", "Flag of Aggressor": "United States", "Type of Aggression": "Surface Craft", "Assessment": "Sunk", "URL": null }, "geometry": { "type": "Point", "coordinates": [ 118.0, 0.166666666666667 ] } },
{ "type": "Feature", "properties": { "Month": "January", "Day": 24, "Year": 1942, "Name of Vessel": "SUMANOURA MARU", "Type of Vessel": "Passenger-Cargo", "Standard T": 3519, "Latitude": "00-10N", "Longitude": "118-00E", "Flag of Aggressor": "United States", "Type of Aggression": "Surface Craft", "Assessment": "Sunk", "URL": null }, "geometry": { "type": "Point", "coordinates": [ 118.0, 0.166666666666667 ] } },
{ "type": "Feature", "properties": { "Month": "January", "Day": 24, "Year": 1942, "Name of Vessel": "NANA MARU", "Type of Vessel": "Passenger-Cargo", "Standard T": 6764, "Latitude": "00-10N", "Longitude": "118-00E", "Flag of Aggressor": "Netherlands", "Type of Aggression": "Aircraft", "Assessment": "Sunk", "URL": null }, "geometry": { "type": "Point", "coordinates": [ 118.0, 0.166666666666667 ] } },
{ "type": "Feature", "properties": { "Month": "January", "Day": 24, "Year": 1942, "Name of Vessel": "MYOKEN MARU", "Type of Vessel": "Cargo", "Standard T": 4124, "Latitude": "1-22N", "Longitude": "125-05E", "Flag of Aggressor": "United States", "Type of Aggression": "Submarine", "Assessment": "Sunk", "URL": null }, "geometry": { "type": "Point", "coordinates": [ 125.083333333333329, 1.366666666666667 ] } },
{ "type": "Feature", "properties": { "Month": "February", "Day": 1, "Year": 1942, "Name of Vessel": "BORDEAUX MARU", "Type of Vessel": "Passenger-Cargo", "Standard T": 6566, "Latitude": "9-28N", "Longitude": "170-15E", "Flag of Aggressor": "United States", "Type of Aggression": "Surface Craft", "Assessment": "Sunk", "URL": null }, "geometry": { "type": "Point", "coordinates": [ 170.25, 9.466666666666667 ] } },
{ "type": "Feature", "properties": { "Month": "February", "Day": 1, "Year": 1942, "Name of Vessel": "TOYOTSU MARU", "Type of Vessel": "Converted Gunboat", "Standard T": 2930, "Latitude": "9-28N", "Longitude": "170-15E", "Flag of Aggressor": "United States", "Type of Aggression": "Surface Craft", "Assessment": "Sunk", "URL": null }, "geometry": { "type": "Point", "coordinates": [ 170.25, 9.466666666666667 ] } },
{ "type": "Feature", "properties": { "Month": "February", "Day": 2, "Year": 1942, "Name of Vessel": "TAMAGAWA MARU", "Type of Vessel": "Passenger-Cargo", "Standard T": 6441, "Latitude": "17-16N", "Longitude": "119-48E", "Flag of Aggressor": "United States", "Type of Aggression": "Submarine", "Assessment": "Sunk", "URL": null }, "geometry": { "type": "Point", "coordinates": [ 119.8, 17.266666666666666 ] } },
{ "type": "Feature", "properties": { "Month": "February", "Day": 10, "Year": 1942, "Name of Vessel": "CHUWA MARU", "Type of Vessel": "Cargo", "Standard T": 2719, "Latitude": "25-30N", "Longitude": "122-38E", "Flag of Aggressor": "United States", "Type of Aggression": "Submarine", "Assessment": "Sunk", "URL": null }, "geometry": { "type": "Point", "coordinates": [ 122.63333333333334, 25.5 ] } },
{ "type": "Feature", "properties": { "Month": "February", "Day": 14, "Year": 1942, "Name of Vessel": "INABASAN MARU", "Type of Vessel": "Cargo", "Standard T": 989, "Latitude": "1-25S", "Longitude": "105-00E", "Flag of Aggressor": "United States, Great Britain, Netherlands", "Type of Aggression": "Army Aircraft, Aircraft", "Assessment": "Sunk", "URL": null }, "geometry": { "type": "Point", "coordinates": [ 105.0, -1.416666666666667 ] } },
{ "type": "Feature", "properties": { "Month": "February", "Day": 21, "Year": 1942, "Name of Vessel": "SHOKYU MARU", "Type of Vessel": "Cargo", "Standard T": 4434, "Latitude": "32-10N", "Longitude": "126-28E", "Flag of Aggressor": "United States", "Type of Aggression": "Submarine", "Assessment": "Sunk", "URL": null }, "geometry": { "type": "Point", "coordinates": [ 126.466666666666669, 32.166666666666664 ] } },
{ "type": "Feature", "properties": { "Month": "March   ", "Day": 1, "Year": 1942, "Name of Vessel": "SAKURA MARU", "Type of Vessel": "Passenger-Cargo", "Standard T": 7170, "Latitude": "5-56S", "Longitude": "106-12E", "Flag of Aggressor": "United States, Australia, Netherlands", "Type of Aggression": "Army Aircraft, Surface Craft, Aircraft", "Assessment": "Sunk", "URL": null }, "geometry": { "type": "Point", "coordinates": [ 106.2, -5.933333333333334 ] } },
{ "type": "Feature", "properties": { "Month": "March   ", "Day": 1, "Year": 1942, "Name of Vessel": "HORAI MARU", "Type of Vessel": "Passenger-Cargo", "Standard T": 9192, "Latitude": "5-56S", "Longitude": "106-12E", "Flag of Aggressor": "United States, Australia, Netherlands", "Type of Aggression": "Army Aircraft, Surface Craft, Aircraft", "Assessment": "Sunk", "URL": null }, "geometry": { "type": "Point", "coordinates": [ 106.2, -5.933333333333334 ] } },
{ "type": "Feature", "properties": { "Month": "March   ", "Day": 1, "Year": 1942, "Name of Vessel": "KAIJO MARU NO 2", "Type of Vessel": "Tanker", "Standard T": 8636, "Latitude": "4-52N", "Longitude": "151-20E", "Flag of Aggressor": "United States", "Type of Aggression": "Submarine", "Assessment": "Sunk", "URL": null }, "geometry": { "type": "Point", "coordinates": [ 151.333333333333343, 4.866666666666667 ] } },
{ "type": "Feature", "properties": { "Month": "March   ", "Day": 2, "Year": 1942, "Name of Vessel": "KAMOGAWA MARU", "Type of Vessel": "Aircraft Ferry", "Standard T": 6440, "Latitude": "8-06S", "Longitude": "115-57E", "Flag of Aggressor": "United States", "Type of Aggression": "Submarine", "Assessment": "Sunk", "URL": null }, "geometry": { "type": "Point", "coordinates": [ 115.95, -8.1 ] } },
{ "type": "Feature", "properties": { "Month": "March   ", "Day": 4, "Year": 1942, "Name of Vessel": "MORIOKA MARU", "Type of Vessel": "Cargo", "Standard T": 4469, "Latitude": "32-55N", "Longitude": "129-26E", "Flag of Aggressor": "Japan", "Type of Aggression": "Mine*", "Assessment": "Sunk", "URL": null }, "geometry": { "type": "Point", "coordinates": [ 129.433333333333337, 32.916666666666664 ] } },
{ "type": "Feature", "properties": { "Month": "March   ", "Day": 4, "Year": 1942, "Name of Vessel": "TAKI MARU", "Type of Vessel": "Cargo", "Standard T": 1244, "Latitude": "28-37N", "Longitude": "129-10E", "Flag of Aggressor": "United States", "Type of Aggression": "Submarine", "Assessment": "Sunk", "URL": null }, "geometry": { "type": "Point", "coordinates": [ 129.166666666666657, 28.616666666666667 ] } },
{ "type": "Feature", "properties": { "Month": "March   ", "Day": 4, "Year": 1942, "Name of Vessel": "ERIMO", "Type of Vessel": "Tanker", "Standard T": 6500, "Latitude": "4-19S", "Longitude": "108-25E", "Flag of Aggressor": "United States", "Type of Aggression": "Submarine", "Assessment": "Sunk", "URL": null }, "geometry": { "type": "Point", "coordinates": [ 108.416666666666671, -4.316666666666666 ] } },
{ "type": "Feature", "properties": { "Month": "March   ", "Day": 4, "Year": 1942, "Name of Vessel": "UNKNOWN MARU", "Type of Vessel": "Cargo", "Standard T": 4000, "Latitude": "32-33N", "Longitude": "133-26E", "Flag of Aggressor": "United States", "Type of Aggression": "Submarine", "Assessment": "Sunk", "URL": null }, "geometry": { "type": "Point", "coordinates": [ 133.433333333333337, 32.55 ] } },
{ "type": "Feature", "properties": { "Month": "March   ", "Day": 10, "Year": 1942, "Name of Vessel": "YOKOHAMA MARU", "Type of Vessel": "Cargo", "Standard T": 6143, "Latitude": "7-01S", "Longitude": "147-07E", "Flag of Aggressor": "United States", "Type of Aggression": "Army Aircraft Navy Carrier-Based Aircraft", "Assessment": "Sunk", "URL": null }, "geometry": { "type": "Point", "coordinates": [ 147.116666666666674, -7.016666666666667 ] } },
{ "type": "Feature", "properties": { "Month": "March   ", "Day": 10, "Year": 1942, "Name of Vessel": "KONGO MARU", "Type of Vessel": "Converted Light Cruiser", "Standard T": 8624, "Latitude": "6-49S", "Longitude": "147-02E", "Flag of Aggressor": "United States", "Type of Aggression": "Navy Carrier-Based Aircraft", "Assessment": "Sunk", "URL": null }, "geometry": { "type": "Point", "coordinates": [ 147.033333333333331, -6.816666666666666 ] } },
{ "type": "Feature", "properties": { "Month": "March   ", "Day": 10, "Year": 1942, "Name of Vessel": "TENYO MARU", "Type of Vessel": "Converted Minesweeper", "Standard T": 6843, "Latitude": "6-49S", "Longitude": "147-02E", "Flag of Aggressor": "United States", "Type of Aggression": "Navy Carrier-Based Aircraft", "Assessment": "Sunk", "URL": null }, "geometry": { "type": "Point", "coordinates": [ 147.033333333333331, -6.816666666666666 ] } },
{ "type": "Feature", "properties": { "Month": "March   ", "Day": 10, "Year": 1942, "Name of Vessel": "KOSEI MARU", "Type of Vessel": "Passenger-Cargo", "Standard T": 6667, "Latitude": "16-05N", "Longitude": "120-20E", "Flag of Aggressor": "Japan", "Type of Aggression": "Mine", "Assessment": "Sunk", "URL": null }, "geometry": { "type": "Point", "coordinates": [ 120.333333333333329, 16.083333333333332 ] } },
{ "type": "Feature", "properties": { "Month": "March   ", "Day": 11, "Year": 1942, "Name of Vessel": "FUKUSHU MARU", "Type of Vessel": "Cargo", "Standard T": 1454, "Latitude": "30-53N", "Longitude": "126-20E", "Flag of Aggressor": "United States", "Type of Aggression": "Submarine", "Assessment": "Sunk", "URL": null }, "geometry": { "type": "Point", "coordinates": [ 126.333333333333329, 30.883333333333333 ] } },
{ "type": "Feature", "properties": { "Month": "March   ", "Day": 13, "Year": 1942, "Name of Vessel": "CHICHIBU MARU", "Type of Vessel": "Cargo", "Standard T": 1520, "Latitude": "33-53N", "Longitude": "139-29E", "Flag of Aggressor": "United States", "Type of Aggression": "Submarine", "Assessment": "Sunk", "URL": null }, "geometry": { "type": "Point", "coordinates": [ 139.48333333333332, 33.883333333333333 ] } },
{ "type": "Feature", "properties": { "Month": "March   ", "Day": 17, "Year": 1942, "Name of Vessel": "YUBARI MARU", "Type of Vessel": "Cargo", "Standard T": 4109, "Latitude": "3-05S", "Longitude": "114-21E", "Flag of Aggressor": "Netherlands", "Type of Aggression": "Aircraft*", "Assessment": null, "URL": null }, "geometry": { "type": "Point", "coordinates": [ 114.35, -3.083333333333333 ] } },
{ "type": "Feature", "properties": { "Month": "March   ", "Day": 17, "Year": 1942, "Name of Vessel": "ISHIKARI MARU", "Type of Vessel": "Cargo", "Standard T": 3291, "Latitude": "27-05N", "Longitude": "142-05E", "Flag of Aggressor": "United States", "Type of Aggression": "Submarine", "Assessment": "Sunk", "URL": null }, "geometry": { "type": "Point", "coordinates": [ 142.083333333333343, 27.083333333333332 ] } },
{ "type": "Feature", "properties": { "Month": "March   ", "Day": 26, "Year": 1942, "Name of Vessel": "UNKNOWN MARU", "Type of Vessel": "Cargo", "Standard T": 4000, "Latitude": "32-31N", "Longitude": "127-10E", "Flag of Aggressor": "United States", "Type of Aggression": "Submarine", "Assessment": "Sunk", "URL": null }, "geometry": { "type": "Point", "coordinates": [ 127.166666666666671, 32.516666666666666 ] } },
{ "type": "Feature", "properties": { "Month": "March   ", "Day": 27, "Year": 1942, "Name of Vessel": "KITANO MARU", "Type of Vessel": "Passenger-Cargo", "Standard T": 7951, "Latitude": "16-10N", "Longitude": "120-24E", "Flag of Aggressor": "Japan", "Type of Aggression": "Mine*", "Assessment": "Sunk", "URL": null }, "geometry": { "type": "Point", "coordinates": [ 120.4, 16.166666666666668 ] } },
{ "type": "Feature", "properties": { "Month": "March   ", "Day": 27, "Year": 1942, "Name of Vessel": "UNKNOWN MARU", "Type of Vessel": "Passenger-Cargo", "Standard T": 4000, "Latitude": "33-53N", "Longitude": "127-33E", "Flag of Aggressor": "United States", "Type of Aggression": "Submarine", "Assessment": "Sunk", "URL": null }, "geometry": { "type": "Point", "coordinates": [ 127.55, 33.883333333333333 ] } },
{ "type": "Feature", "properties": { "Month": "March   ", "Day": 30, "Year": 1942, "Name of Vessel": "CHOKO MARU", "Type of Vessel": "Cargo", "Standard T": 842, "Latitude": "5-39S", "Longitude": "119-00E", "Flag of Aggressor": "United States", "Type of Aggression": "Submarine", "Assessment": "Sunk", "URL": null }, "geometry": { "type": "Point", "coordinates": [ 119.0, -5.65 ] } },
{ "type": "Feature", "properties": { "Month": "April          ", "Day": 1, "Year": 1942, "Name of Vessel": "YAE MARU", "Type of Vessel": "Cargo", "Standard T": 6781, "Latitude": "5-42N", "Longitude": "98-57E", "Flag of Aggressor": "Great Britain", "Type of Aggression": "Submarine", "Assessment": "Sunk", "URL": null }, "geometry": { "type": "Point", "coordinates": [ 98.95, 5.7 ] } },
{ "type": "Feature", "properties": { "Month": "April          ", "Day": 1, "Year": 1942, "Name of Vessel": "SHUNSEI MARU", "Type of Vessel": "Cargo", "Standard T": 4939, "Latitude": "5-42N", "Longitude": "93-57E", "Flag of Aggressor": "Great Britain", "Type of Aggression": "Submarine", "Assessment": "Sunk", "URL": null }, "geometry": { "type": "Point", "coordinates": [ 93.95, 5.7 ] } },
{ "type": "Feature", "properties": { "Month": "April          ", "Day": 10, "Year": 1942, "Name of Vessel": "SADO MARU", "Type of Vessel": "Cargo", "Standard T": 3039, "Latitude": "34-52N", "Longitude": "139-15E", "Flag of Aggressor": "United States", "Type of Aggression": "Submarine", "Assessment": "Sunk", "URL": null }, "geometry": { "type": "Point", "coordinates": [ 139.25, 34.866666666666667 ] } },
{ "type": "Feature", "properties": { "Month": "April          ", "Day": 11, "Year": 1942, "Name of Vessel": "TAIJUN MARU", "Type of Vessel": "Cargo", "Standard T": 1274, "Latitude": "6-49S", "Longitude": "147-02E", "Flag of Aggressor": "United States", "Type of Aggression": "Army Aircraft", "Assessment": "Sunk", "URL": null }, "geometry": { "type": "Point", "coordinates": [ 147.033333333333331, -6.816666666666666 ] } },
{ "type": "Feature", "properties": { "Month": "April          ", "Day": 13, "Year": 1942, "Name of Vessel": "RYUJIN MARU", "Type of Vessel": "Cargo", "Standard T": 6243, "Latitude": "31-51N", "Longitude": "132-50E", "Flag of Aggressor": "United States", "Type of Aggression": "Submarine", "Assessment": "Sunk", "URL": null }, "geometry": { "type": "Point", "coordinates": [ 132.833333333333343, 31.85 ] } },
{ "type": "Feature", "properties": { "Month": "April          ", "Day": 17, "Year": 1942, "Name of Vessel": "UNKNOWN MARU", "Type of Vessel": "Cargo", "Standard T": 4000, "Latitude": "10-53N", "Longitude": "121-35E", "Flag of Aggressor": "United States", "Type of Aggression": "Submarine", "Assessment": "Sunk", "URL": null }, "geometry": { "type": "Point", "coordinates": [ 121.583333333333329, 10.883333333333333 ] } },
{ "type": "Feature", "properties": { "Month": "April          ", "Day": 18, "Year": 1942, "Name of Vessel": "KOMAKI MARU", "Type of Vessel": "Transport", "Standard T": 8525, "Latitude": "4-12S", "Longitude": "152-10E", "Flag of Aggressor": "United States", "Type of Aggression": "Army Aircraft", "Assessment": "Sunk", "URL": null }, "geometry": { "type": "Point", "coordinates": [ 152.166666666666657, -4.2 ] } },
{ "type": "Feature", "properties": { "Month": "April          ", "Day": 23, "Year": 1942, "Name of Vessel": "UNKNOWN MARU", "Type of Vessel": "Trawler", "Standard T": 1000, "Latitude": "28-22N", "Longitude": "153-18E", "Flag of Aggressor": "United States", "Type of Aggression": "Submarine", "Assessment": "Probably sunk", "URL": null }, "geometry": { "type": "Point", "coordinates": [ 153.3, 28.366666666666667 ] } },
{ "type": "Feature", "properties": { "Month": "April          ", "Day": 25, "Year": 1942, "Name of Vessel": "TOBA MARU", "Type of Vessel": "Cargo", "Standard T": 6995, "Latitude": "17-01N", "Longitude": "120-15E", "Flag of Aggressor": "United States", "Type of Aggression": "Submarine", "Assessment": "Probably sunk", "URL": null }, "geometry": { "type": "Point", "coordinates": [ 120.25, 17.016666666666666 ] } },
{ "type": "Feature", "properties": { "Month": "May        ", "Day": 1, "Year": 1942, "Name of Vessel": "CALCUTTA MARU", "Type of Vessel": "Passenger-Cargo", "Standard T": 5339, "Latitude": "28-07N", "Longitude": "123-45E", "Flag of Aggressor": "United States", "Type of Aggression": "Submarine", "Assessment": "Sunk", "URL": null }, "geometry": { "type": "Point", "coordinates": [ 123.75, 28.116666666666667 ] } },
{ "type": "Feature", "properties": { "Month": "May        ", "Day": 2, "Year": 1942, "Name of Vessel": "UZAN MARU", "Type of Vessel": "Cargo", "Standard T": 5014, "Latitude": "33-26N", "Longitude": "135-52E", "Flag of Aggressor": "United States", "Type of Aggression": "Submarine", "Assessment": "Sunk", "URL": null }, "geometry": { "type": "Point", "coordinates": [ 135.866666666666674, 33.43333333333333 ] } },
{ "type": "Feature", "properties": { "Month": "May        ", "Day": 4, "Year": 1942, "Name of Vessel": "KINJOSAN MARU", "Type of Vessel": "Cargo", "Standard T": 3262, "Latitude": "8-44N", "Longitude": "150-56E", "Flag of Aggressor": "United States", "Type of Aggression": "Submarine", "Assessment": "Sunk", "URL": null }, "geometry": { "type": "Point", "coordinates": [ 150.933333333333337, 8.733333333333333 ] } },
{ "type": "Feature", "properties": { "Month": "May        ", "Day": 4, "Year": 1942, "Name of Vessel": "KONGOSAN MARU", "Type of Vessel": "Converted Gunboat", "Standard T": 2119, "Latitude": "33-32N", "Longitude": "136-05E", "Flag of Aggressor": "United States", "Type of Aggression": "Submarine", "Assessment": "Sunk", "URL": null }, "geometry": { "type": "Point", "coordinates": [ 136.083333333333343, 33.533333333333331 ] } },
{ "type": "Feature", "properties": { "Month": "May        ", "Day": 6, "Year": 1942, "Name of Vessel": "KANAN MARU", "Type of Vessel": "Cargo", "Standard T": 2567, "Latitude": "12-05N", "Longitude": "109-35E", "Flag of Aggressor": "United States", "Type of Aggression": "Submarine", "Assessment": "Sunk", "URL": null }, "geometry": { "type": "Point", "coordinates": [ 109.583333333333329, 12.083333333333334 ] } },
{ "type": "Feature", "properties": { "Month": "May        ", "Day": 6, "Year": 1942, "Name of Vessel": "TAIEI MARU", "Type of Vessel": "Cargo", "Standard T": 2209, "Latitude": "28-42N", "Longitude": "123-50E", "Flag of Aggressor": "United States", "Type of Aggression": "Submarine", "Assessment": "Sunk", "URL": null }, "geometry": { "type": "Point", "coordinates": [ 123.833333333333329, 28.7 ] } },
{ "type": "Feature", "properties": { "Month": "May        ", "Day": 6, "Year": 1942, "Name of Vessel": "TAIGEN MARU", "Type of Vessel": "Passenger-Cargo", "Standard T": 5660, "Latitude": "28-19N", "Longitude": "123-33E", "Flag of Aggressor": "United States", "Type of Aggression": "Submarine", "Assessment": "Sunk", "URL": null }, "geometry": { "type": "Point", "coordinates": [ 123.55, 28.316666666666666 ] } },
{ "type": "Feature", "properties": { "Month": "May        ", "Day": 8, "Year": 1942, "Name of Vessel": "BUJUN MARU", "Type of Vessel": "Cargo", "Standard T": 4804, "Latitude": "12-00N", "Longitude": "111-10E", "Flag of Aggressor": "United States", "Type of Aggression": "Submarine", "Assessment": "Sunk", "URL": null }, "geometry": { "type": "Point", "coordinates": [ 111.166666666666671, 12.0 ] } },
{ "type": "Feature", "properties": { "Month": "May        ", "Day": 8, "Year": 1942, "Name of Vessel": "TAIYO MARU", "Type of Vessel": "Transport", "Standard T": 14457, "Latitude": "30-40N", "Longitude": "127-54E", "Flag of Aggressor": "United States", "Type of Aggression": "Submarine", "Assessment": "Sunk", "URL": null }, "geometry": { "type": "Point", "coordinates": [ 127.9, 30.666666666666668 ] } },
{ "type": "Feature", "properties": { "Month": "May        ", "Day": 9, "Year": 1942, "Name of Vessel": "UNKNOWN MARU", "Type of Vessel": "Cargo", "Standard T": 4000, "Latitude": "33-48N", "Longitude": "136-08E", "Flag of Aggressor": "United States", "Type of Aggression": "Submarine", "Assessment": "Probably sunk", "URL": null }, "geometry": { "type": "Point", "coordinates": [ 136.133333333333326, 33.8 ] } },
{ "type": "Feature", "properties": { "Month": "May        ", "Day": 10, "Year": 1942, "Name of Vessel": "ORIDONO MARU", "Type of Vessel": "Cargo", "Standard T": 5278, "Latitude": "7-00S", "Longitude": "112-40E", "Flag of Aggressor": "Japan", "Type of Aggression": "Mine*", "Assessment": "Sunk", "URL": null }, "geometry": { "type": "Point", "coordinates": [ 112.666666666666671, -7.0 ] } },
{ "type": "Feature", "properties": { "Month": "May        ", "Day": 12, "Year": 1942, "Name of Vessel": "SHOEI MARU", "Type of Vessel": "Converted Salvage Vessel", "Standard T": 5644, "Latitude": "4-51S", "Longitude": "152-54E", "Flag of Aggressor": "United States", "Type of Aggression": "Submarine", "Assessment": "Sunk", "URL": null }, "geometry": { "type": "Point", "coordinates": [ 152.9, -4.85 ] } },
{ "type": "Feature", "properties": { "Month": "May        ", "Day": 13, "Year": 1942, "Name of Vessel": "SHONAN MARU", "Type of Vessel": "Cargo", "Standard T": 5264, "Latitude": "34-39N", "Longitude": "139-10E", "Flag of Aggressor": "United States", "Type of Aggression": "Submarine", "Assessment": "Sunk", "URL": null }, "geometry": { "type": "Point", "coordinates": [ 139.166666666666657, 34.65 ] } },
{ "type": "Feature", "properties": { "Month": "May        ", "Day": 13, "Year": 1942, "Name of Vessel": "NAGASAKI MARU", "Type of Vessel": "Transport", "Standard T": 5268, "Latitude": "33-00N", "Longitude": "129-40E", "Flag of Aggressor": "Japan", "Type of Aggression": "Mine", "Assessment": "Sunk", "URL": null }, "geometry": { "type": "Point", "coordinates": [ 129.666666666666657, 33.0 ] } },
{ "type": "Feature", "properties": { "Month": "May        ", "Day": 15, "Year": 1942, "Name of Vessel": "TOYOHARA MARU", "Type of Vessel": "Cargo", "Standard T": 805, "Latitude": "33-34N", "Longitude": "125-09E", "Flag of Aggressor": "United States", "Type of Aggression": "Submarine", "Assessment": "Sunk", "URL": null }, "geometry": { "type": "Point", "coordinates": [ 125.15, 33.56666666666667 ] } },
{ "type": "Feature", "properties": { "Month": "May        ", "Day": 17, "Year": 1942, "Name of Vessel": "UNKNOWN MARU", "Type of Vessel": "Cargo", "Standard T": 4000, "Latitude": "33-28N", "Longitude": "135-33E", "Flag of Aggressor": "United States", "Type of Aggression": "Submarine", "Assessment": "Sunk", "URL": null }, "geometry": { "type": "Point", "coordinates": [ 135.55, 33.466666666666669 ] } },
{ "type": "Feature", "properties": { "Month": "May        ", "Day": 17, "Year": 1942, "Name of Vessel": "TAZAN MARU", "Type of Vessel": "Passenger-Cargo", "Standard T": 5478, "Latitude": "6-22N", "Longitude": "108-36E", "Flag of Aggressor": "United States", "Type of Aggression": "Submarine", "Assessment": "Sunk", "URL": null }, "geometry": { "type": "Point", "coordinates": [ 108.6, 6.366666666666666 ] } },
{ "type": "Feature", "properties": { "Month": "May        ", "Day": 25, "Year": 1942, "Name of Vessel": "KITAKATA MARU", "Type of Vessel": "Cargo", "Standard T": 2380, "Latitude": "34-53N", "Longitude": "140-04E", "Flag of Aggressor": "United States", "Type of Aggression": "Submarine", "Assessment": "Sunk", "URL": null }, "geometry": { "type": "Point", "coordinates": [ 140.066666666666663, 34.883333333333333 ] } },
{ "type": "Feature", "properties": { "Month": "May        ", "Day": 25, "Year": 1942, "Name of Vessel": "TOKYO MARU", "Type of Vessel": "Tanker", "Standard T": 902, "Latitude": "27-03N", "Longitude": "127-03E", "Flag of Aggressor": "United States", "Type of Aggression": "Submarine", "Assessment": "Sunk", "URL": null }, "geometry": { "type": "Point", "coordinates": [ 127.05, 27.05 ] } },
{ "type": "Feature", "properties": { "Month": "May        ", "Day": 25, "Year": 1942, "Name of Vessel": "SHOKA MARU", "Type of Vessel": "Cargo", "Standard T": 4467, "Latitude": "4-07N", "Longitude": "143-32E", "Flag of Aggressor": "United States", "Type of Aggression": "Submarine", "Assessment": "Sunk", "URL": null }, "geometry": { "type": "Point", "coordinates": [ 143.533333333333331, 4.116666666666666 ] } },
{ "type": "Feature", "properties": { "Month": "May        ", "Day": 28, "Year": 1942, "Name of Vessel": "GANGES MARU", "Type of Vessel": "Passenger-Cargo", "Standard T": 4382, "Latitude": "9-00N", "Longitude": "111-00E", "Flag of Aggressor": "United States", "Type of Aggression": "Submarine", "Assessment": "Sunk", "URL": null }, "geometry": { "type": "Point", "coordinates": [ 111.0, 9.0 ] } },
{ "type": "Feature", "properties": { "Month": "May        ", "Day": 28, "Year": 1942, "Name of Vessel": "TATSUFUKU MARU", "Type of Vessel": "Cargo", "Standard T": 1946, "Latitude": "7-27N", "Longitude": "116-17E", "Flag of Aggressor": "United States", "Type of Aggression": "Submarine", "Assessment": "Sunk", "URL": null }, "geometry": { "type": "Point", "coordinates": [ 116.283333333333331, 7.45 ] } },
{ "type": "Feature", "properties": { "Month": "May        ", "Day": 29, "Year": 1942, "Name of Vessel": "UNKNOWN MARU", "Type of Vessel": "Cargo", "Standard T": 1900, "Latitude": "7-33N", "Longitude": "116-18E", "Flag of Aggressor": "United States", "Type of Aggression": "Submarine", "Assessment": "Sunk", "URL": null }, "geometry": { "type": "Point", "coordinates": [ 116.3, 7.55 ] } },
{ "type": "Feature", "properties": { "Month": "May        ", "Day": 30, "Year": 1942, "Name of Vessel": "ATSUTA MARU", "Type of Vessel": "Transport", "Standard T": 7983, "Latitude": "26-07N", "Longitude": "129-06E", "Flag of Aggressor": "United States", "Type of Aggression": "Submarine", "Assessment": "Sunk", "URL": "www.combinedfleet.com/Atsuta_t.htm\n" }, "geometry": { "type": "Point", "coordinates": [ 129.1, 26.116666666666667 ] } },
{ "type": "Feature", "properties": { "Month": "June        ", "Day": 1, "Year": 1942, "Name of Vessel": "KOFUKU MARU", "Type of Vessel": "Passenger-Cargo", "Standard T": 5822, "Latitude": "16-16N", "Longitude": "96-18E", "Flag of Aggressor": "United States", "Type of Aggression": "Army Aircraft", "Assessment": "Sunk", "URL": null }, "geometry": { "type": "Point", "coordinates": [ 96.3, 16.266666666666666 ] } },
{ "type": "Feature", "properties": { "Month": "June        ", "Day": 4, "Year": 1942, "Name of Vessel": "TOYOHASHI MARU", "Type of Vessel": "Passenger-Cargo", "Standard T": 7031, "Latitude": "7-30N", "Longitude": "93-10E", "Flag of Aggressor": "Great Britain", "Type of Aggression": "Submarine", "Assessment": "Sunk", "URL": "www.combinedfleet.com/Toyohashi_t.htm\n" }, "geometry": { "type": "Point", "coordinates": [ 93.166666666666671, 7.5 ] } },
{ "type": "Feature", "properties": { "Month": "June        ", "Day": 12, "Year": 1942, "Name of Vessel": "BURMA MARU", "Type of Vessel": "Cargo", "Standard T": 4584, "Latitude": "10-08N", "Longitude": "102-34E", "Flag of Aggressor": "United States", "Type of Aggression": "Submarine", "Assessment": "Sunk", "URL": null }, "geometry": { "type": "Point", "coordinates": [ 102.566666666666663, 10.133333333333333 ] } },
{ "type": "Feature", "properties": { "Month": "June        ", "Day": 15, "Year": 1942, "Name of Vessel": "NAMPO MARU", "Type of Vessel": "Converted Gunboat", "Standard T": 1206, "Latitude": "14-20N", "Longitude": "120-20E", "Flag of Aggressor": "United States", "Type of Aggression": "Submarine", "Assessment": "Sunk", "URL": null }, "geometry": { "type": "Point", "coordinates": [ 120.333333333333329, 14.333333333333334 ] } },
{ "type": "Feature", "properties": { "Month": "June        ", "Day": 18, "Year": 1942, "Name of Vessel": "NISSAN MARU", "Type of Vessel": "Cargo", "Standard T": 6537, "Latitude": "51-58N", "Longitude": "177-40E", "Flag of Aggressor": "United States", "Type of Aggression": "Army Aircraft", "Assessment": "Sunk", "URL": null }, "geometry": { "type": "Point", "coordinates": [ 177.666666666666657, 51.966666666666669 ] } },
{ "type": "Feature", "properties": { "Month": "June        ", "Day": 28, "Year": 1942, "Name of Vessel": "SAIKYO MARU", "Type of Vessel": "Converted Gunboat", "Standard T": 1292, "Latitude": "12-41N", "Longitude": "136-22E", "Flag of Aggressor": "United States", "Type of Aggression": "Submarine", "Assessment": "Sunk", "URL": null }, "geometry": { "type": "Point", "coordinates": [ 136.366666666666674, 12.683333333333334 ] } },
{ "type": "Feature", "properties": { "Month": "June        ", "Day": 30, "Year": 1942, "Name of Vessel": "UNKAI MARU NO 5", "Type of Vessel": "Cargo", "Standard T": 3282, "Latitude": "30-04N", "Longitude": "122-54E", "Flag of Aggressor": "United States", "Type of Aggression": "Submarine", "Assessment": "Sunk", "URL": null }, "geometry": { "type": "Point", "coordinates": [ 122.9, 30.066666666666666 ] } },
{ "type": "Feature", "properties": { "Month": "July     ", "Day": 1, "Year": 1942, "Name of Vessel": "MONTEVIDEO MARU", "Type of Vessel": "Transport", "Standard T": 7267, "Latitude": "18-37N", "Longitude": "119-29E", "Flag of Aggressor": "United States", "Type of Aggression": "Submarine", "Assessment": "Sunk", "URL": null }, "geometry": { "type": "Point", "coordinates": [ 119.483333333333334, 18.616666666666667 ] } },
{ "type": "Feature", "properties": { "Month": "July     ", "Day": 2, "Year": 1942, "Name of Vessel": "UNYO MARU NO 3", "Type of Vessel": "Cargo", "Standard T": 2997, "Latitude": "30-30N", "Longitude": "120-25E", "Flag of Aggressor": "United States", "Type of Aggression": "Submarine", "Assessment": "Sunk", "URL": null }, "geometry": { "type": "Point", "coordinates": [ 120.416666666666671, 30.5 ] } },
{ "type": "Feature", "properties": { "Month": "July     ", "Day": 8, "Year": 1942, "Name of Vessel": "TENZAN MARU", "Type of Vessel": "Passenger-Cargo", "Standard T": 2776, "Latitude": "4-00S", "Longitude": "151-50E", "Flag of Aggressor": "United States", "Type of Aggression": "Submarine", "Assessment": "Sunk", "URL": null }, "geometry": { "type": "Point", "coordinates": [ 151.833333333333343, -4.0 ] } },
{ "type": "Feature", "properties": { "Month": "July     ", "Day": 9, "Year": 1942, "Name of Vessel": "SHINSHO MARU", "Type of Vessel": "Motor Torpedo Boat Tender", "Standard T": 4836, "Latitude": "8-43N", "Longitude": "167-33E", "Flag of Aggressor": "United States", "Type of Aggression": "Submarine", "Assessment": "Sunk", "URL": null }, "geometry": { "type": "Point", "coordinates": [ 167.55, 8.716666666666667 ] } },
{ "type": "Feature", "properties": { "Month": "July     ", "Day": 12, "Year": 1942, "Name of Vessel": "HIYAMA MARU", "Type of Vessel": "Cargo", "Standard T": 6171, "Latitude": "13-48N", "Longitude": "109-33E", "Flag of Aggressor": "United States", "Type of Aggression": "Submarine", "Assessment": "Sunk", "URL": null }, "geometry": { "type": "Point", "coordinates": [ 109.55, 13.8 ] } },
{ "type": "Feature", "properties": { "Month": "July     ", "Day": 13, "Year": 1942, "Name of Vessel": "SHINYO MARU", "Type of Vessel": "Passenger-Cargo", "Standard T": 4163, "Latitude": "13-04N", "Longitude": "109-39E", "Flag of Aggressor": "United States", "Type of Aggression": "Submarine", "Assessment": "Sunk", "URL": null }, "geometry": { "type": "Point", "coordinates": [ 109.65, 13.066666666666666 ] } },
{ "type": "Feature", "properties": { "Month": "July     ", "Day": 22, "Year": 1942, "Name of Vessel": "AYATOSAN MARU", "Type of Vessel": "Transport", "Standard T": 9788, "Latitude": "8-50S", "Longitude": "148-50E", "Flag of Aggressor": "United States, Australia", "Type of Aggression": "Army Aircraft, Aircraft", "Assessment": "Sunk", "URL": null }, "geometry": { "type": "Point", "coordinates": [ 148.833333333333343, -8.833333333333334 ] } },
{ "type": "Feature", "properties": { "Month": "July     ", "Day": 24, "Year": 1942, "Name of Vessel": "UNKNOWN MARU", "Type of Vessel": "Cargo", "Standard T": 1500, "Latitude": "45-05N", "Longitude": "147-27E", "Flag of Aggressor": "United States", "Type of Aggression": "Submarine", "Assessment": "Sunk", "URL": null }, "geometry": { "type": "Point", "coordinates": [ 147.45, 45.083333333333336 ] } },
{ "type": "Feature", "properties": { "Month": "July     ", "Day": 28, "Year": 1942, "Name of Vessel": "UNKNOWN MARU", "Type of Vessel": "Transport", "Standard T": 4000, "Latitude": "33-21N", "Longitude": "139-24E", "Flag of Aggressor": "United States", "Type of Aggression": "Submarine", "Assessment": "Sunk", "URL": null }, "geometry": { "type": "Point", "coordinates": [ 139.4, 33.35 ] } },
{ "type": "Feature", "properties": { "Month": "August", "Day": 1, "Year": 1942, "Name of Vessel": "MEIWA MARU", "Type of Vessel": "Cargo", "Standard T": 2921, "Latitude": "41-12N", "Longitude": "141-36E", "Flag of Aggressor": "United States", "Type of Aggression": "Submarine", "Assessment": "Sunk", "URL": null }, "geometry": { "type": "Point", "coordinates": [ 141.6, 41.2 ] } },
{ "type": "Feature", "properties": { "Month": "August", "Day": 2, "Year": 1942, "Name of Vessel": "ZENYO MARU", "Type of Vessel": "Passenger-Cargo", "Standard T": 6441, "Latitude": "5-36N", "Longitude": "99-53E", "Flag of Aggressor": "Netherlands", "Type of Aggression": "Submarine", "Assessment": "Sunk", "URL": null }, "geometry": { "type": "Point", "coordinates": [ 99.88333333333334, 5.6 ] } },
{ "type": "Feature", "properties": { "Month": "August", "Day": 3, "Year": 1942, "Name of Vessel": "NANIWA MARU", "Type of Vessel": "Cargo", "Standard T": 4353, "Latitude": "7-37N", "Longitude": "150-18E", "Flag of Aggressor": "United States", "Type of Aggression": "Submarine", "Assessment": "Sunk", "URL": null }, "geometry": { "type": "Point", "coordinates": [ 150.3, 7.616666666666667 ] } },
{ "type": "Feature", "properties": { "Month": "August", "Day": 5, "Year": 1942, "Name of Vessel": "BRASIL MARU", "Type of Vessel": "Transport", "Standard T": 12752, "Latitude": "9-50N", "Longitude": "150-38E", "Flag of Aggressor": "United States", "Type of Aggression": "Submarine", "Assessment": "Sunk", "URL": null }, "geometry": { "type": "Point", "coordinates": [ 150.633333333333326, 9.833333333333334 ] } },
{ "type": "Feature", "properties": { "Month": "August", "Day": 6, "Year": 1942, "Name of Vessel": "OHIO MARU", "Type of Vessel": "Passenger-Cargo", "Standard T": 5872, "Latitude": "13-51N", "Longitude": "113-15E", "Flag of Aggressor": "United States", "Type of Aggression": "Submarine", "Assessment": "Sunk", "URL": null }, "geometry": { "type": "Point", "coordinates": [ 113.25, 13.85 ] } },
{ "type": "Feature", "properties": { "Month": "August", "Day": 6, "Year": 1942, "Name of Vessel": "PALAO MARU", "Type of Vessel": "Passenger-Cargo", "Standard T": 4495, "Latitude": "9-04N", "Longitude": "150-54E", "Flag of Aggressor": "United States", "Type of Aggression": "Submarine", "Assessment": "Sunk", "URL": null }, "geometry": { "type": "Point", "coordinates": [ 150.9, 9.066666666666666 ] } },
{ "type": "Feature", "properties": { "Month": "August", "Day": 7, "Year": 1942, "Name of Vessel": "SHOFUKU MARU", "Type of Vessel": "Converted Net Tender", "Standard T": 891, "Latitude": "9-22N", "Longitude": "170-12E", "Flag of Aggressor": "United States", "Type of Aggression": "Submarine", "Assessment": "Sunk", "URL": null }, "geometry": { "type": "Point", "coordinates": [ 170.2, 9.366666666666667 ] } },
{ "type": "Feature", "properties": { "Month": "August", "Day": 8, "Year": 1942, "Name of Vessel": "KOTOKU MARU", "Type of Vessel": "Transport", "Standard T": 6701, "Latitude": "7-01N", "Longitude": "147-07E", "Flag of Aggressor": "United States", "Type of Aggression": "Army Aircraft", "Assessment": "Sunk", "URL": null }, "geometry": { "type": "Point", "coordinates": [ 147.116666666666674, 7.016666666666667 ] } },
{ "type": "Feature", "properties": { "Month": "August", "Day": 8, "Year": 1942, "Name of Vessel": "KANO MARU", "Type of Vessel": "Cargo", "Standard T": 8572, "Latitude": "51-58N", "Longitude": "177-33E", "Flag of Aggressor": "United States", "Type of Aggression": "Army Aircraft Surface Craft", "Assessment": "Sunk", "URL": null }, "geometry": { "type": "Point", "coordinates": [ 177.55, 51.966666666666669 ] } },
{ "type": "Feature", "properties": { "Month": "August", "Day": 8, "Year": 1942, "Name of Vessel": "MEIYO MARU", "Type of Vessel": "Transport", "Standard T": 5628, "Latitude": "4-52S", "Longitude": "152-43E", "Flag of Aggressor": "United States", "Type of Aggression": "Submarine", "Assessment": null, "URL": null }, "geometry": { "type": "Point", "coordinates": [ 152.716666666666669, -4.866666666666667 ] } },
{ "type": "Feature", "properties": { "Month": "August", "Day": 8, "Year": 1942, "Name of Vessel": "NIKKEI MARU", "Type of Vessel": "Passenger-Cargo", "Standard T": 5811, "Latitude": "33-33N", "Longitude": "135-23E", "Flag of Aggressor": "United States", "Type of Aggression": "Submarine", "Assessment": "Sunk", "URL": null }, "geometry": { "type": "Point", "coordinates": [ 135.383333333333326, 33.55 ] } },
{ "type": "Feature", "properties": { "Month": "August", "Day": 8, "Year": 1942, "Name of Vessel": "BIFUKU MARU", "Type of Vessel": "Passenger-Cargo", "Standard T": 2559, "Latitude": "41-14N", "Longitude": "141-32E", "Flag of Aggressor": "United States", "Type of Aggression": "Submarine", "Assessment": "Sunk", "URL": null }, "geometry": { "type": "Point", "coordinates": [ 141.533333333333331, 41.233333333333334 ] } },
{ "type": "Feature", "properties": { "Month": "August", "Day": 12, "Year": 1942, "Name of Vessel": "UNKNOWN MARU", "Type of Vessel": "Cargo", "Standard T": 4000, "Latitude": "33-02N", "Longitude": "136-00E", "Flag of Aggressor": "United States", "Type of Aggression": "Submarine", "Assessment": "Sunk", "URL": null }, "geometry": { "type": "Point", "coordinates": [ 136.0, 33.033333333333331 ] } },
{ "type": "Feature", "properties": { "Month": "August", "Day": 14, "Year": 1942, "Name of Vessel": "HACHIGEN MARU", "Type of Vessel": "Passenger-Cargo", "Standard T": 3113, "Latitude": "5-07N", "Longitude": "119-37E", "Flag of Aggressor": "United States", "Type of Aggression": "Submarine", "Assessment": "Sunk", "URL": null }, "geometry": { "type": "Point", "coordinates": [ 119.61666666666666, 5.116666666666666 ] } },
{ "type": "Feature", "properties": { "Month": "August", "Day": 21, "Year": 1942, "Name of Vessel": "SHINSEI MARU NO 6", "Type of Vessel": "Passenger-Cargo", "Standard T": 4928, "Latitude": "6-45N", "Longitude": "158-10E", "Flag of Aggressor": "United States", "Type of Aggression": "Submarine", "Assessment": "Sunk", "URL": null }, "geometry": { "type": "Point", "coordinates": [ 158.166666666666657, 6.75 ] } },
{ "type": "Feature", "properties": { "Month": "August", "Day": 22, "Year": 1942, "Name of Vessel": "UNKNOWN MARU", "Type of Vessel": "Transport", "Standard T": 4000, "Latitude": "26-07N", "Longitude": "121-29E", "Flag of Aggressor": "United States", "Type of Aggression": "Submarine", "Assessment": "Sunk", "URL": null }, "geometry": { "type": "Point", "coordinates": [ 121.483333333333334, 26.116666666666667 ] } },
{ "type": "Feature", "properties": { "Month": "August", "Day": 24, "Year": 1942, "Name of Vessel": "SEIKAI MARU", "Type of Vessel": "Passenger-Cargo", "Standard T": 3109, "Latitude": "38-12N", "Longitude": "141-30E", "Flag of Aggressor": "United States", "Type of Aggression": "Submarine", "Assessment": "Sunk", "URL": null }, "geometry": { "type": "Point", "coordinates": [ 141.5, 38.2 ] } },
{ "type": "Feature", "properties": { "Month": "August", "Day": 25, "Year": 1942, "Name of Vessel": "KINRYU MARU", "Type of Vessel": "Converted Light Cruiser", "Standard T": 9310, "Latitude": "7-47S", "Longitude": "160-13E", "Flag of Aggressor": "United States", "Type of Aggression": "Marine Land- Based Aircraft", "Assessment": "Sunk", "URL": null }, "geometry": { "type": "Point", "coordinates": [ 160.216666666666669, -7.783333333333333 ] } },
{ "type": "Feature", "properties": { "Month": "August", "Day": 25, "Year": 1942, "Name of Vessel": "SHOWA MARU", "Type of Vessel": "Cargo", "Standard T": 1349, "Latitude": "3-55N", "Longitude": "118-59E", "Flag of Aggressor": "United States", "Type of Aggression": "Submarine", "Assessment": "Probably sunk", "URL": null }, "geometry": { "type": "Point", "coordinates": [ 118.983333333333334, 3.916666666666667 ] } },
{ "type": "Feature", "properties": { "Month": "August", "Day": 25, "Year": 1942, "Name of Vessel": "SENYO MARU", "Type of Vessel": "Converted Gunboat", "Standard T": 2904, "Latitude": "22-23N", "Longitude": "120-10E", "Flag of Aggressor": "United States", "Type of Aggression": "Submarine", "Assessment": "Sunk", "URL": null }, "geometry": { "type": "Point", "coordinates": [ 120.166666666666671, 22.383333333333333 ] } },
{ "type": "Feature", "properties": { "Month": "August", "Day": 26, "Year": 1942, "Name of Vessel": "TEISHUN MARU", "Type of Vessel": "Cargo", "Standard T": 2251, "Latitude": "27-05N", "Longitude": "121-23E", "Flag of Aggressor": "United States", "Type of Aggression": "Submarine", "Assessment": "Sunk", "URL": null }, "geometry": { "type": "Point", "coordinates": [ 121.38333333333334, 27.083333333333332 ] } },
{ "type": "Feature", "properties": { "Month": "August", "Day": 31, "Year": 1942, "Name of Vessel": "EIFUKU MARU", "Type of Vessel": "Cargo", "Standard T": 5866, "Latitude": "25-43N", "Longitude": "122-38E", "Flag of Aggressor": "United States", "Type of Aggression": "Submarine", "Assessment": "Sunk", "URL": null }, "geometry": { "type": "Point", "coordinates": [ 122.63333333333334, 25.716666666666665 ] } },
{ "type": "Feature", "properties": { "Month": "September", "Day": 2, "Year": 1942, "Name of Vessel": "TEIKYU MARU", "Type of Vessel": "Cargo", "Standard T": 2332, "Latitude": "42-08N", "Longitude": "141-15E", "Flag of Aggressor": "United States", "Type of Aggression": "Submarine", "Assessment": "Sunk", "URL": null }, "geometry": { "type": "Point", "coordinates": [ 141.25, 42.133333333333333 ] } },
{ "type": "Feature", "properties": { "Month": "September", "Day": 4, "Year": 1942, "Name of Vessel": "KASHINO", "Type of Vessel": "Supply Ship", "Standard T": 4000, "Latitude": "25-43N", "Longitude": "122-38E", "Flag of Aggressor": "United States", "Type of Aggression": "Submarine", "Assessment": "Sunk", "URL": null }, "geometry": { "type": "Point", "coordinates": [ 122.63333333333334, 25.716666666666665 ] } },
{ "type": "Feature", "properties": { "Month": "September", "Day": 4, "Year": 1942, "Name of Vessel": "CHITA MARU", "Type of Vessel": "Cargo", "Standard T": 2276, "Latitude": "40-10N", "Longitude": "141-53E", "Flag of Aggressor": "Unites States", "Type of Aggression": "Submarine", "Assessment": "Sunk", "URL": null }, "geometry": { "type": "Point", "coordinates": [ 141.883333333333326, 40.166666666666664 ] } },
{ "type": "Feature", "properties": { "Month": "September", "Day": 4, "Year": 1942, "Name of Vessel": "TENYU MARU", "Type of Vessel": "Cargo", "Standard T": 3738, "Latitude": "40-14N", "Longitude": "141-51E", "Flag of Aggressor": "United States", "Type of Aggression": "Submarine", "Assessment": "Sunk", "URL": null }, "geometry": { "type": "Point", "coordinates": [ 141.85, 40.233333333333334 ] } },
{ "type": "Feature", "properties": { "Month": "September", "Day": 4, "Year": 1942, "Name of Vessel": "KAIMEI MARU", "Type of Vessel": "Cargo", "Standard T": 5254, "Latitude": "40-14N", "Longitude": "141-51E", "Flag of Aggressor": "United States", "Type of Aggression": "Submarine", "Assessment": "Sunk", "URL": null }, "geometry": { "type": "Point", "coordinates": [ 141.85, 40.233333333333334 ] } },
{ "type": "Feature", "properties": { "Month": "September", "Day": 7, "Year": 1942, "Name of Vessel": "TAIKA MARU", "Type of Vessel": "Cargo", "Standard T": 2204, "Latitude": "25-31N", "Longitude": "121-33E", "Flag of Aggressor": "United States", "Type of Aggression": "Submarine", "Assessment": "Sunk", "URL": null }, "geometry": { "type": "Point", "coordinates": [ 121.55, 25.516666666666666 ] } },
{ "type": "Feature", "properties": { "Month": "September", "Day": 11, "Year": 1942, "Name of Vessel": "KANTO MARU", "Type of Vessel": "Aircraft Ferry", "Standard T": 8606, "Latitude": "3-16S", "Longitude": "118-29E", "Flag of Aggressor": "United States", "Type of Aggression": "Submarine", "Assessment": "Sunk", "URL": null }, "geometry": { "type": "Point", "coordinates": [ 118.483333333333334, -3.266666666666667 ] } },
{ "type": "Feature", "properties": { "Month": "September", "Day": 12, "Year": 1942, "Name of Vessel": "NIYO MARU", "Type of Vessel": "Cargo", "Standard T": 1350, "Latitude": "20-15N", "Longitude": "92-35E", "Flag of Aggressor": "Great Britain", "Type of Aggression": "Aircraft", "Assessment": "Sunk", "URL": null }, "geometry": { "type": "Point", "coordinates": [ 92.583333333333329, 20.25 ] } },
{ "type": "Feature", "properties": { "Month": "September", "Day": 19, "Year": 1942, "Name of Vessel": "SHIROGANE MARU", "Type of Vessel": "Passenger-Cargo", "Standard T": 3130, "Latitude": "6-33S", "Longitude": "156-05E", "Flag of Aggressor": "United States", "Type of Aggression": "Submarine", "Assessment": "Sunk", "URL": null }, "geometry": { "type": "Point", "coordinates": [ 156.083333333333343, -6.55 ] } },
{ "type": "Feature", "properties": { "Month": "September", "Day": 21, "Year": 1942, "Name of Vessel": "TONE MARU", "Type of Vessel": "Cargo", "Standard T": 4070, "Latitude": "31-18N", "Longitude": "123-27E", "Flag of Aggressor": "United States", "Type of Aggression": "Submarine", "Assessment": "Sunk", "URL": null }, "geometry": { "type": "Point", "coordinates": [ 123.45, 31.3 ] } },
{ "type": "Feature", "properties": { "Month": "September", "Day": 21, "Year": 1942, "Name of Vessel": "KOEI MARU", "Type of Vessel": "Converted Net Tender", "Standard T": 863, "Latitude": "6-54N", "Longitude": "151-51E", "Flag of Aggressor": "United States", "Type of Aggression": "Submarine", "Assessment": "Sunk", "URL": null }, "geometry": { "type": "Point", "coordinates": [ 151.85, 6.9 ] } },
{ "type": "Feature", "properties": { "Month": "September", "Day": 25, "Year": 1942, "Name of Vessel": "TEIBO MARU", "Type of Vessel": "Cargo", "Standard T": 4472, "Latitude": "10-31N", "Longitude": "109-31E", "Flag of Aggressor": "United States", "Type of Aggression": "Submarine", "Assessment": "Sunk", "URL": null }, "geometry": { "type": "Point", "coordinates": [ 109.516666666666666, 10.516666666666667 ] } },
{ "type": "Feature", "properties": { "Month": "September", "Day": 28, "Year": 1942, "Name of Vessel": "NOJIMA MARU", "Type of Vessel": "Cargo", "Standard T": 7189, "Latitude": "51-58N", "Longitude": "177-33E", "Flag of Aggressor": "United States", "Type of Aggression": "Army Aircraft", "Assessment": "Sunk", "URL": null }, "geometry": { "type": "Point", "coordinates": [ 177.55, 51.966666666666669 ] } },
{ "type": "Feature", "properties": { "Month": "September", "Day": 28, "Year": 1942, "Name of Vessel": "TAMON MARU NO 6", "Type of Vessel": "Cargo", "Standard T": 4994, "Latitude": "40-35N", "Longitude": "141-50E", "Flag of Aggressor": "United States", "Type of Aggression": "Submarine", "Assessment": "Sunk", "URL": null }, "geometry": { "type": "Point", "coordinates": [ 141.833333333333343, 40.583333333333336 ] } },
{ "type": "Feature", "properties": { "Month": "October    ", "Day": 1, "Year": 1942, "Name of Vessel": "YOMEI MARU", "Type of Vessel": "Cargo", "Standard T": 2860, "Latitude": "33-35N", "Longitude": "135-15E", "Flag of Aggressor": "United States", "Type of Aggression": "Submarine", "Assessment": "Sunk", "URL": null }, "geometry": { "type": "Point", "coordinates": [ 135.25, 33.583333333333336 ] } },
{ "type": "Feature", "properties": { "Month": "October    ", "Day": 1, "Year": 1942, "Name of Vessel": "LISBON MARU", "Type of Vessel": "Transport", "Standard T": 7053, "Latitude": "29-57N", "Longitude": "122-56E", "Flag of Aggressor": "United States", "Type of Aggression": "Submarine", "Assessment": "Sunk", "URL": null }, "geometry": { "type": "Point", "coordinates": [ 122.933333333333337, 29.95 ] } },
{ "type": "Feature", "properties": { "Month": "October    ", "Day": 1, "Year": 1942, "Name of Vessel": "TOSEI MARU", "Type of Vessel": "Cargo", "Standard T": 2432, "Latitude": "41-20N", "Longitude": "141-35E", "Flag of Aggressor": "United States", "Type of Aggression": "Submarine", "Assessment": "Sunk", "URL": null }, "geometry": { "type": "Point", "coordinates": [ 141.583333333333343, 41.333333333333336 ] } },
{ "type": "Feature", "properties": { "Month": "October    ", "Day": 1, "Year": 1942, "Name of Vessel": "KATSURAGI MARU", "Type of Vessel": "Aircraft Ferry", "Standard T": 8033, "Latitude": "5-51S", "Longitude": "153-18E", "Flag of Aggressor": "United States", "Type of Aggression": "Submarine", "Assessment": "Sunk", "URL": null }, "geometry": { "type": "Point", "coordinates": [ 153.3, -5.85 ] } },
{ "type": "Feature", "properties": { "Month": "October    ", "Day": 3, "Year": 1942, "Name of Vessel": "KINKAI MARU", "Type of Vessel": "Cargo", "Standard T": 5852, "Latitude": "38-46N", "Longitude": "142-02E", "Flag of Aggressor": "United States", "Type of Aggression": "Submarine", "Assessment": "Sunk", "URL": null }, "geometry": { "type": "Point", "coordinates": [ 142.033333333333331, 38.766666666666666 ] } },
{ "type": "Feature", "properties": { "Month": "October    ", "Day": 4, "Year": 1942, "Name of Vessel": "SETSUYO MARU", "Type of Vessel": "Cargo", "Standard T": 4147, "Latitude": "39-48N", "Longitude": "142-08E", "Flag of Aggressor": "United States", "Type of Aggression": "Submarine", "Assessment": "Sunk", "URL": null }, "geometry": { "type": "Point", "coordinates": [ 142.133333333333326, 39.8 ] } },
{ "type": "Feature", "properties": { "Month": "October    ", "Day": 7, "Year": 1942, "Name of Vessel": "SENKAI MARU", "Type of Vessel": "Passenger-Cargo", "Standard T": 2095, "Latitude": "1-55N", "Longitude": "153-42E", "Flag of Aggressor": "United States", "Type of Aggression": "Submarine", "Assessment": "Sunk", "URL": null }, "geometry": { "type": "Point", "coordinates": [ 153.7, 1.916666666666667 ] } },
{ "type": "Feature", "properties": { "Month": "October    ", "Day": 7, "Year": 1942, "Name of Vessel": "NAMINOUE MARU", "Type of Vessel": "Transport", "Standard T": 4731, "Latitude": "3-51S", "Longitude": "151-21E", "Flag of Aggressor": "United States", "Type of Aggression": "Submarine", "Assessment": "Sunk", "URL": null }, "geometry": { "type": "Point", "coordinates": [ 151.35, -3.85 ] } },
{ "type": "Feature", "properties": { "Month": "October    ", "Day": 8, "Year": 1942, "Name of Vessel": "BORNEO MARU", "Type of Vessel": "Cargo", "Standard T": 5863, "Latitude": "51-56N", "Longitude": "177-27E", "Flag of Aggressor": "United States", "Type of Aggression": "Army Aircraft", "Assessment": "Sunk", "URL": null }, "geometry": { "type": "Point", "coordinates": [ 177.45, 51.93333333333333 ] } },
{ "type": "Feature", "properties": { "Month": "October    ", "Day": 8, "Year": 1942, "Name of Vessel": "HAGUE MARU", "Type of Vessel": "Passenger-Cargo", "Standard T": 5641, "Latitude": "34-06N", "Longitude": "136-22E", "Flag of Aggressor": "United States", "Type of Aggression": "Submarine", "Assessment": "Sunk", "URL": null }, "geometry": { "type": "Point", "coordinates": [ 136.366666666666674, 34.1 ] } },
{ "type": "Feature", "properties": { "Month": "October    ", "Day": 9, "Year": 1942, "Name of Vessel": "HACHIMANZAN MARU", "Type of Vessel": "Cargo", "Standard T": 2461, "Latitude": "33-27N", "Longitude": "136-01E", "Flag of Aggressor": "United States", "Type of Aggression": "Submarine", "Assessment": "Sunk", "URL": null }, "geometry": { "type": "Point", "coordinates": [ 136.01666666666668, 33.45 ] } },
{ "type": "Feature", "properties": { "Month": "October    ", "Day": 10, "Year": 1942, "Name of Vessel": "SHIGURE MARU", "Type of Vessel": "Cargo", "Standard T": 2445, "Latitude": "1-01S", "Longitude": "117-23E", "Flag of Aggressor": "United States", "Type of Aggression": "Submarine", "Assessment": "Sunk", "URL": null }, "geometry": { "type": "Point", "coordinates": [ 117.38333333333334, -1.016666666666667 ] } },
{ "type": "Feature", "properties": { "Month": "October    ", "Day": 14, "Year": 1942, "Name of Vessel": "TEISON MARU", "Type of Vessel": "Transport", "Standard T": 7007, "Latitude": "25-22N", "Longitude": "121-15E", "Flag of Aggressor": "United States", "Type of Aggression": "Submarine", "Assessment": "Sunk", "URL": null }, "geometry": { "type": "Point", "coordinates": [ 121.25, 25.366666666666667 ] } },
{ "type": "Feature", "properties": { "Month": "October    ", "Day": 14, "Year": 1942, "Name of Vessel": "SUMIYOSHI MARU", "Type of Vessel": "Cargo", "Standard T": 1921, "Latitude": "3-20S", "Longitude": "150-03E", "Flag of Aggressor": "United States", "Type of Aggression": "Submarine", "Assessment": "Sunk", "URL": null }, "geometry": { "type": "Point", "coordinates": [ 150.05, -3.333333333333333 ] } },
{ "type": "Feature", "properties": { "Month": "October    ", "Day": 14, "Year": 1942, "Name of Vessel": "SHUNKO MARU", "Type of Vessel": "Cargo", "Standard T": 6781, "Latitude": "5-35N", "Longitude": "144-25E", "Flag of Aggressor": "United States", "Type of Aggression": "Submarine", "Assessment": "Sunk", "URL": null }, "geometry": { "type": "Point", "coordinates": [ 144.416666666666657, 5.583333333333333 ] } },
{ "type": "Feature", "properties": { "Month": "October    ", "Day": 14, "Year": 1942, "Name of Vessel": "TAKUSEI MARU", "Type of Vessel": "Cargo", "Standard T": 3515, "Latitude": "39-33N", "Longitude": "142-15E", "Flag of Aggressor": "United States", "Type of Aggression": "Submarine", "Assessment": "Sunk", "URL": null }, "geometry": { "type": "Point", "coordinates": [ 142.25, 39.55 ] } },
{ "type": "Feature", "properties": { "Month": "October    ", "Day": 15, "Year": 1942, "Name of Vessel": "KYUSHU MARU", "Type of Vessel": "Passenger-Cargo", "Standard T": 8666, "Latitude": "9-25S", "Longitude": "159-55E", "Flag of Aggressor": "United States", "Type of Aggression": "Army Aircraft Navy Land-Based Aircraft Marine Land-Based Aircraft", "Assessment": "Sunk", "URL": null }, "geometry": { "type": "Point", "coordinates": [ 159.916666666666657, -9.416666666666666 ] } },
{ "type": "Feature", "properties": { "Month": "October    ", "Day": 15, "Year": 1942, "Name of Vessel": "SASAKO", "Type of Vessel": "Passenger-Cargo", "Standard T": 9258, "Latitude": "9-25S", "Longitude": "159-55E", "Flag of Aggressor": "United States", "Type of Aggression": "Navy Land-Based Aircraft Marine Land-Based Aircraft", "Assessment": "Sunk", "URL": null }, "geometry": { "type": "Point", "coordinates": [ 159.916666666666657, -9.416666666666666 ] } },
{ "type": "Feature", "properties": { "Month": "October    ", "Day": 15, "Year": 1942, "Name of Vessel": "AZUMASAN", "Type of Vessel": "Passenger-Cargo", "Standard T": 7623, "Latitude": "9-25S", "Longitude": "159-55E", "Flag of Aggressor": "United States", "Type of Aggression": "Army AircraftNavy Carrier-Based Aircraft Navy Land-Based AircraftMarine Land-Based Aircraft", "Assessment": "Sunk", "URL": null }, "geometry": { "type": "Point", "coordinates": [ 159.916666666666657, -9.416666666666666 ] } },
{ "type": "Feature", "properties": { "Month": "October    ", "Day": 17, "Year": 1942, "Name of Vessel": "HOLLAND MARU", "Type of Vessel": "Cargo", "Standard T": 5869, "Latitude": "32-21N", "Longitude": "132-04E", "Flag of Aggressor": "United States", "Type of Aggression": "Submarine", "Assessment": "Sunk", "URL": null }, "geometry": { "type": "Point", "coordinates": [ 132.066666666666663, 32.35 ] } },
{ "type": "Feature", "properties": { "Month": "October    ", "Day": 18, "Year": 1942, "Name of Vessel": "HAKONESAN MARU", "Type of Vessel": "Cargo", "Standard T": 6673, "Latitude": "38-46N", "Longitude": "142-03E", "Flag of Aggressor": "United States", "Type of Aggression": "Submarine", "Assessment": "Sunk", "URL": null }, "geometry": { "type": "Point", "coordinates": [ 142.05, 38.766666666666666 ] } },
{ "type": "Feature", "properties": { "Month": "October    ", "Day": 20, "Year": 1942, "Name of Vessel": "RYUNAN MARU", "Type of Vessel": "Cargo", "Standard T": 5106, "Latitude": "34-08N", "Longitude": "136-46E", "Flag of Aggressor": "United States", "Type of Aggression": "Submarine", "Assessment": "Sunk", "URL": null }, "geometry": { "type": "Point", "coordinates": [ 136.76666666666668, 34.133333333333333 ] } },
{ "type": "Feature", "properties": { "Month": "October    ", "Day": 20, "Year": 1942, "Name of Vessel": "YAMAFUJI MARU", "Type of Vessel": "Cargo", "Standard T": 5359, "Latitude": "24-26N", "Longitude": "120-26E", "Flag of Aggressor": "United States", "Type of Aggression": "Submarine", "Assessment": "Sunk", "URL": null }, "geometry": { "type": "Point", "coordinates": [ 120.433333333333337, 24.433333333333334 ] } },
{ "type": "Feature", "properties": { "Month": "October    ", "Day": 20, "Year": 1942, "Name of Vessel": "AFRICA MARU", "Type of Vessel": "Cargo", "Standard T": 9475, "Latitude": "24-26N", "Longitude": "120-26E", "Flag of Aggressor": "United States", "Type of Aggression": "Submarine", "Assessment": "Sunk", "URL": null }, "geometry": { "type": "Point", "coordinates": [ 120.433333333333337, 24.433333333333334 ] } },
{ "type": "Feature", "properties": { "Month": "October    ", "Day": 21, "Year": 1942, "Name of Vessel": "CHOKO MARU", "Type of Vessel": "Passenger-Cargo", "Standard T": 6783, "Latitude": "3-30S", "Longitude": "150-30E", "Flag of Aggressor": "United States", "Type of Aggression": "Submarine", "Assessment": "Sunk", "URL": null }, "geometry": { "type": "Point", "coordinates": [ 150.5, -3.5 ] } },
{ "type": "Feature", "properties": { "Month": "October    ", "Day": 21, "Year": 1942, "Name of Vessel": "UNKNOWN MARU", "Type of Vessel": "Cargo", "Standard T": 4000, "Latitude": "27-03N", "Longitude": "122-42E", "Flag of Aggressor": "United States", "Type of Aggression": "Submarine", "Assessment": "Sunk", "URL": null }, "geometry": { "type": "Point", "coordinates": [ 122.7, 27.05 ] } },
{ "type": "Feature", "properties": { "Month": "October    ", "Day": 21, "Year": 1942, "Name of Vessel": "NICHIHO MARU", "Type of Vessel": "Cargo", "Standard T": 6363, "Latitude": "27-03N", "Longitude": "122-42E", "Flag of Aggressor": "United States", "Type of Aggression": "Submarine", "Assessment": "Sunk", "URL": null }, "geometry": { "type": "Point", "coordinates": [ 122.7, 27.05 ] } },
{ "type": "Feature", "properties": { "Month": "October    ", "Day": 22, "Year": 1942, "Name of Vessel": "HAKKAISAN MARU", "Type of Vessel": "Converted Gunboat", "Standard T": 3311, "Latitude": "3-30S", "Longitude": "175-15E", "Flag of Aggressor": "United States", "Type of Aggression": "Surface Craft", "Assessment": "Sunk", "URL": null }, "geometry": { "type": "Point", "coordinates": [ 175.25, -3.5 ] } },
{ "type": "Feature", "properties": { "Month": "October    ", "Day": 23, "Year": 1942, "Name of Vessel": "SEIKYO MARU", "Type of Vessel": "Converted Gunboat", "Standard T": 2608, "Latitude": "33-45N", "Longitude": "135-25E", "Flag of Aggressor": "United States", "Type of Aggression": "Submarine", "Assessment": "Sunk", "URL": null }, "geometry": { "type": "Point", "coordinates": [ 135.416666666666657, 33.75 ] } },
{ "type": "Feature", "properties": { "Month": "October    ", "Day": 24, "Year": 1942, "Name of Vessel": "KENUN MARU", "Type of Vessel": "Cargo", "Standard T": 4643, "Latitude": "41-24N", "Longitude": "141-50E", "Flag of Aggressor": "United States", "Type of Aggression": "Submarine", "Assessment": "Sunk", "URL": null }, "geometry": { "type": "Point", "coordinates": [ 141.833333333333343, 41.4 ] } },
{ "type": "Feature", "properties": { "Month": "October    ", "Day": 25, "Year": 1942, "Name of Vessel": "KOTOBUKI MARU NO 5", "Type of Vessel": "Converted Net Tender", "Standard T": 720, "Latitude": "4-13S", "Longitude": "152-11E", "Flag of Aggressor": "United States", "Type of Aggression": "Army Aircraft", "Assessment": "Sunk", "URL": null }, "geometry": { "type": "Point", "coordinates": [ 152.183333333333337, -4.216666666666667 ] } },
{ "type": "Feature", "properties": { "Month": "October    ", "Day": 26, "Year": 1942, "Name of Vessel": "KEIZAN MARU", "Type of Vessel": "Cargo", "Standard T": 2864, "Latitude": "50-09N", "Longitude": "155-37E", "Flag of Aggressor": "United States", "Type of Aggression": "Submarine", "Assessment": "Sunk", "URL": null }, "geometry": { "type": "Point", "coordinates": [ 155.616666666666674, 50.15 ] } },
{ "type": "Feature", "properties": { "Month": "October    ", "Day": 27, "Year": 1942, "Name of Vessel": "UNKNOWN MARU", "Type of Vessel": "Passenger-Cargo", "Standard T": 4000, "Latitude": "10-20N", "Longitude": "108-43E", "Flag of Aggressor": "United States", "Type of Aggression": "Submarine", "Assessment": "Sunk", "URL": null }, "geometry": { "type": "Point", "coordinates": [ 108.716666666666669, 10.333333333333334 ] } },
{ "type": "Feature", "properties": { "Month": "October    ", "Day": 31, "Year": 1942, "Name of Vessel": "UNKNOWN MARU", "Type of Vessel": "Cargo", "Standard T": 3000, "Latitude": "4-40S", "Longitude": "118-54E", "Flag of Aggressor": "United States", "Type of Aggression": "Submarine", "Assessment": "Probably sunk", "URL": null }, "geometry": { "type": "Point", "coordinates": [ 118.9, -4.666666666666667 ] } },
{ "type": "Feature", "properties": { "Month": "November   ", "Day": 2, "Year": 1942, "Name of Vessel": "YASUKAWA MARU", "Type of Vessel": "Passenger-Cargo", "Standard T": 6710, "Latitude": "8-41S", "Longitude": "148-27E", "Flag of Aggressor": "United States", "Type of Aggression": "Army Aircraft", "Assessment": "Sunk", "URL": null }, "geometry": { "type": "Point", "coordinates": [ 148.45, -8.683333333333334 ] } },
{ "type": "Feature", "properties": { "Month": "November   ", "Day": 2, "Year": 1942, "Name of Vessel": "GIFU MARU", "Type of Vessel": "Cargo", "Standard T": 2933, "Latitude": "6-14N", "Longitude": "126-07E", "Flag of Aggressor": "United States", "Type of Aggression": "Submarine", "Assessment": "Sunk", "URL": null }, "geometry": { "type": "Point", "coordinates": [ 126.11666666666666, 6.233333333333333 ] } },
{ "type": "Feature", "properties": { "Month": "November   ", "Day": 3, "Year": 1942, "Name of Vessel": "TEKKAI MARU", "Type of Vessel": "Cargo", "Standard T": 1925, "Latitude": "32-02N", "Longitude": "126-15E", "Flag of Aggressor": "United States", "Type of Aggression": "Submarine", "Assessment": "Sunk", "URL": null }, "geometry": { "type": "Point", "coordinates": [ 126.25, 32.033333333333331 ] } },
{ "type": "Feature", "properties": { "Month": "November   ", "Day": 3, "Year": 1942, "Name of Vessel": "SAGAMI MARU", "Type of Vessel": "Passenger-Cargo", "Standard T": 7189, "Latitude": "7-02N", "Longitude": "125-33E", "Flag of Aggressor": "United States", "Type of Aggression": "Submarine", "Assessment": "Sunk", "URL": null }, "geometry": { "type": "Point", "coordinates": [ 125.55, 7.033333333333333 ] } },
{ "type": "Feature", "properties": { "Month": "November   ", "Day": 3, "Year": 1942, "Name of Vessel": "CHIKUGO MARU", "Type of Vessel": "Cargo", "Standard T": 2461, "Latitude": "20-18N", "Longitude": "108-39E", "Flag of Aggressor": "United States", "Type of Aggression": "Submarine", "Assessment": "Sunk", "URL": null }, "geometry": { "type": "Point", "coordinates": [ 108.65, 20.3 ] } },
{ "type": "Feature", "properties": { "Month": "November   ", "Day": 8, "Year": 1942, "Name of Vessel": "KEIKO MARU", "Type of Vessel": "Converted Gunboat", "Standard T": 2929, "Latitude": "6-22N", "Longitude": "126-03E", "Flag of Aggressor": "United States", "Type of Aggression": "Submarine", "Assessment": "Sunk", "URL": null }, "geometry": { "type": "Point", "coordinates": [ 126.05, 6.366666666666666 ] } },
{ "type": "Feature", "properties": { "Month": "November   ", "Day": 10, "Year": 1942, "Name of Vessel": "UNKNOWN MARU", "Type of Vessel": "Cargo", "Standard T": 4000, "Latitude": "7-12N", "Longitude": "150-47E", "Flag of Aggressor": "United States", "Type of Aggression": "Submarine", "Assessment": "Sunk", "URL": null }, "geometry": { "type": "Point", "coordinates": [ 150.783333333333331, 7.2 ] } },
{ "type": "Feature", "properties": { "Month": "November   ", "Day": 11, "Year": 1942, "Name of Vessel": "HOKOKU MARU", "Type of Vessel": "Converted Light Cruiser", "Standard T": 10439, "Latitude": "20-00S", "Longitude": "93-00E", "Flag of Aggressor": "Great Britain Netherlands", "Type of Aggression": "Surface Craft Surface Craft", "Assessment": "Sunk", "URL": null }, "geometry": { "type": "Point", "coordinates": [ 93.0, -20.0 ] } },
{ "type": "Feature", "properties": { "Month": "November   ", "Day": 11, "Year": 1942, "Name of Vessel": "VENICE MARU", "Type of Vessel": "Passenger-Cargo", "Standard T": 6571, "Latitude": "35-36N", "Longitude": "123-44E", "Flag of Aggressor": "United States", "Type of Aggression": "Submarine", "Assessment": "Sunk", "URL": null }, "geometry": { "type": "Point", "coordinates": [ 123.733333333333334, 35.6 ] } },
{ "type": "Feature", "properties": { "Month": "November   ", "Day": 14, "Year": 1942, "Name of Vessel": "SHINANOGAWA MARU", "Type of Vessel": "Cargo", "Standard T": 7503, "Latitude": "8-30S", "Longitude": "158-45E", "Flag of Aggressor": "United States", "Type of Aggression": "Army Aircraft Navy Carrier-Based Aircraft Marine Land-Based Aircraft", "Assessment": "Sunk", "URL": null }, "geometry": { "type": "Point", "coordinates": [ 158.75, -8.5 ] } },
{ "type": "Feature", "properties": { "Month": "November   ", "Day": 14, "Year": 1942, "Name of Vessel": "NAKO MARU", "Type of Vessel": "Cargo", "Standard T": 7145, "Latitude": "8-30S", "Longitude": "158-45E", "Flag of Aggressor": "United States", "Type of Aggression": "Army Aircraft Navy Carrier-Based Aircraft Marine Land-Based Aircraft", "Assessment": "Sunk", "URL": null }, "geometry": { "type": "Point", "coordinates": [ 158.75, -8.5 ] } },
{ "type": "Feature", "properties": { "Month": "November   ", "Day": 14, "Year": 1942, "Name of Vessel": "NAGARA MARU", "Type of Vessel": "Passenger-Cargo", "Standard T": 7148, "Latitude": "8-30S", "Longitude": "158-45E", "Flag of Aggressor": "United States", "Type of Aggression": "Army Aircraft Navy Carrier-Based Aircraft Marine Land-Based Aircraft", "Assessment": "Sunk", "URL": null }, "geometry": { "type": "Point", "coordinates": [ 158.75, -8.5 ] } },
{ "type": "Feature", "properties": { "Month": "November   ", "Day": 14, "Year": 1942, "Name of Vessel": "SADO MARU", "Type of Vessel": "Cargo", "Standard T": 7180, "Latitude": "8-30S", "Longitude": "158-45E", "Flag of Aggressor": "United States", "Type of Aggression": "Army Aircraft Navy Carrier-Based Aircraft Marine Land-Based Aircraft", "Assessment": "Sunk", "URL": null }, "geometry": { "type": "Point", "coordinates": [ 158.75, -8.5 ] } },
{ "type": "Feature", "properties": { "Month": "November   ", "Day": 14, "Year": 1942, "Name of Vessel": "CANBERRA MARU", "Type of Vessel": "Cargo", "Standard T": 6477, "Latitude": "8-30S", "Longitude": "158-45E", "Flag of Aggressor": "United States", "Type of Aggression": "Army Aircraft Navy Carrier-Based Aircraft Marine Land-Based Aircraft", "Assessment": "Sunk", "URL": null }, "geometry": { "type": "Point", "coordinates": [ 158.75, -8.5 ] } },
{ "type": "Feature", "properties": { "Month": "November   ", "Day": 14, "Year": 1942, "Name of Vessel": "BRISBANE MARU", "Type of Vessel": "Cargo", "Standard T": 5425, "Latitude": "8-30S", "Longitude": "158-45E", "Flag of Aggressor": "United States", "Type of Aggression": "Army Aircraft Navy Carrier-Based Aircraft Marine Land-Based Aircraft", "Assessment": "Sunk", "URL": null }, "geometry": { "type": "Point", "coordinates": [ 158.75, -8.5 ] } },
{ "type": "Feature", "properties": { "Month": "November  ", "Day": 14, "Year": 1942, "Name of Vessel": "ARIZONA MARU", "Type of Vessel": "Cargo", "Standard T": 9684, "Latitude": "8-30S", "Longitude": "158-45E", "Flag of Aggressor": "United States", "Type of Aggression": "Army Aircraft Navy Carrier- Based Aircraft Marine Land- Based Aircraft", "Assessment": "Sunk", "URL": null }, "geometry": { "type": "Point", "coordinates": [ 158.75, -8.5 ] } },
{ "type": "Feature", "properties": { "Month": "November  ", "Day": 15, "Year": 1942, "Name of Vessel": "YAMAZUKI MARU", "Type of Vessel": "Cargo", "Standard T": 6439, "Latitude": "9-20S", "Longitude": "159-50E", "Flag of Aggressor": "United States", "Type of Aggression": "Navy Land- Based Aircraft Marine Land-Based Aircraft", "Assessment": "Sunk", "URL": null }, "geometry": { "type": "Point", "coordinates": [ 159.833333333333343, -9.333333333333334 ] } },
{ "type": "Feature", "properties": { "Month": "November  ", "Day": 15, "Year": 1942, "Name of Vessel": "YAMAURA MARU", "Type of Vessel": "Cargo", "Standard T": 6798, "Latitude": "9-20S", "Longitude": "159-50E", "Flag of Aggressor": "United States", "Type of Aggression": "Army Aircraft Navy Land-Based Aircraft\nMarine Carrier-Based AircraftSurface Craft", "Assessment": "Sunk", "URL": null }, "geometry": { "type": "Point", "coordinates": [ 159.833333333333343, -9.333333333333334 ] } },
{ "type": "Feature", "properties": { "Month": "November  ", "Day": 15, "Year": 1942, "Name of Vessel": "KINUGAWA MARU", "Type of Vessel": "Cargo", "Standard T": 6937, "Latitude": "9-20S", "Longitude": "159-50E", "Flag of Aggressor": "United States", "Type of Aggression": "Army Aircraft Navy Land-Based Aircraft Marine Land-Based Aircraft Surface Craft", "Assessment": "Sunk", "URL": null }, "geometry": { "type": "Point", "coordinates": [ 159.833333333333343, -9.333333333333334 ] } },
{ "type": "Feature", "properties": { "Month": "November  ", "Day": 15, "Year": 1942, "Name of Vessel": "HIROKAWA MARU", "Type of Vessel": "Cargo", "Standard T": 6872, "Latitude": "9-20S", "Longitude": "159-50E", "Flag of Aggressor": "United States", "Type of Aggression": "Army Aircraft Navy Land-Based Aircraft Marine Land-Based Aircraft Surface Craft", "Assessment": "Sunk", "URL": null }, "geometry": { "type": "Point", "coordinates": [ 159.833333333333343, -9.333333333333334 ] } },
{ "type": "Feature", "properties": { "Month": "November  ", "Day": 16, "Year": 1942, "Name of Vessel": "BOSTON MARU", "Type of Vessel": "Transport", "Standard T": 5477, "Latitude": "6-18N", "Longitude": "135-20E", "Flag of Aggressor": "United States", "Type of Aggression": "Submarine", "Assessment": "Sunk", "URL": null }, "geometry": { "type": "Point", "coordinates": [ 135.333333333333343, 6.3 ] } },
{ "type": "Feature", "properties": { "Month": "November  ", "Day": 17, "Year": 1942, "Name of Vessel": "OREGON MARU", "Type of Vessel": "Converted Salvage Vessel", "Standard T": 5873, "Latitude": "14-46N", "Longitude": "119-44E", "Flag of Aggressor": "United States", "Type of Aggression": "Submarine", "Assessment": "Sunk", "URL": null }, "geometry": { "type": "Point", "coordinates": [ 119.733333333333334, 14.766666666666667 ] } },
{ "type": "Feature", "properties": { "Month": "November  ", "Day": 18, "Year": 1942, "Name of Vessel": "HAVANA MARU", "Type of Vessel": "Passenger-Cargo", "Standard T": 5652, "Latitude": "6-48S", "Longitude": "155-49E", "Flag of Aggressor": "United States", "Type of Aggression": "Army Aircraft", "Assessment": "Sunk", "URL": null }, "geometry": { "type": "Point", "coordinates": [ 155.816666666666663, -6.8 ] } },
{ "type": "Feature", "properties": { "Month": "November  ", "Day": 22, "Year": 1942, "Name of Vessel": "KHAI DINH", "Type of Vessel": "Cargo", "Standard T": 5110, "Latitude": "20-58N", "Longitude": "106-40E", "Flag of Aggressor": "United States", "Type of Aggression": "Army Aircraft", "Assessment": "Sunk", "URL": null }, "geometry": { "type": "Point", "coordinates": [ 106.666666666666671, 20.966666666666665 ] } },
{ "type": "Feature", "properties": { "Month": "November  ", "Day": 26, "Year": 1942, "Name of Vessel": "CHERIBON MARU", "Type of Vessel": "Cargo", "Standard T": 4016, "Latitude": "52-45N", "Longitude": "173-15E", "Flag of Aggressor": "United States", "Type of Aggression": "Army Aircraft", "Assessment": "Sunk", "URL": null }, "geometry": { "type": "Point", "coordinates": [ 173.25, 52.75 ] } },
{ "type": "Feature", "properties": { "Month": "November  ", "Day": 27, "Year": 1942, "Name of Vessel": "RYOKUSEI MARU", "Type of Vessel": "Cargo", "Standard T": 1907, "Latitude": "23-11N", "Longitude": "113-14E", "Flag of Aggressor": "United States", "Type of Aggression": "Army Aircraft", "Assessment": "Sunk", "URL": null }, "geometry": { "type": "Point", "coordinates": [ 113.233333333333334, 23.183333333333334 ] } },
{ "type": "Feature", "properties": { "Month": "December", "Day": 7, "Year": 1942, "Name of Vessel": "HINO MARU NO 3", "Type of Vessel": "Passenger-Cargo", "Standard T": 4391, "Latitude": "23-59N", "Longitude": "138-43E", "Flag of Aggressor": "United States", "Type of Aggression": "Submarine", "Assessment": "Sunk", "URL": null }, "geometry": { "type": "Point", "coordinates": [ 138.716666666666669, 23.983333333333334 ] } },
{ "type": "Feature", "properties": { "Month": "December", "Day": 8, "Year": 1942, "Name of Vessel": "HEINAN MARU", "Type of Vessel": "Cargo", "Standard T": 661, "Latitude": "00-52N", "Longitude": "118-54E", "Flag of Aggressor": "United States", "Type of Aggression": "Submarine", "Assessment": "Sunk", "URL": null }, "geometry": { "type": "Point", "coordinates": [ 118.9, 0.866666666666667 ] } },
{ "type": "Feature", "properties": { "Month": "December", "Day": 10, "Year": 1942, "Name of Vessel": "KAMOI MARU", "Type of Vessel": "Cargo", "Standard T": 5355, "Latitude": "4-56S", "Longitude": "154-58E", "Flag of Aggressor": "United States", "Type of Aggression": "Submarine", "Assessment": "Sunk", "URL": null }, "geometry": { "type": "Point", "coordinates": [ 154.966666666666669, -4.933333333333334 ] } },
{ "type": "Feature", "properties": { "Month": "December", "Day": 12, "Year": 1942, "Name of Vessel": "GYOKUZAN MARU", "Type of Vessel": "Cargo", "Standard T": 1970, "Latitude": "40-19N", "Longitude": "142-27E", "Flag of Aggressor": "United States", "Type of Aggression": "Submarine*", "Assessment": "Sunk", "URL": null }, "geometry": { "type": "Point", "coordinates": [ 142.45, 40.31666666666667 ] } },
{ "type": "Feature", "properties": { "Month": "December", "Day": 16, "Year": 1942, "Name of Vessel": "GENZAN MARU", "Type of Vessel": "Passenger-Cargo", "Standard T": 5708, "Latitude": "41-10N", "Longitude": "141-32E", "Flag of Aggressor": "United States", "Type of Aggression": "Submarine*", "Assessment": "Sunk", "URL": null }, "geometry": { "type": "Point", "coordinates": [ 141.533333333333331, 41.166666666666664 ] } },
{ "type": "Feature", "properties": { "Month": "December", "Day": 16, "Year": 1942, "Name of Vessel": "SHINGO MARU", "Type of Vessel": "Cargo", "Standard T": 4740, "Latitude": "41-10N", "Longitude": "141-32E", "Flag of Aggressor": "United States", "Type of Aggression": "Submarine", "Assessment": "Sunk", "URL": null }, "geometry": { "type": "Point", "coordinates": [ 141.533333333333331, 41.166666666666664 ] } },
{ "type": "Feature", "properties": { "Month": "December", "Day": 17, "Year": 1942, "Name of Vessel": "BANDOENG MARU", "Type of Vessel": "Passenger-Cargo", "Standard T": 4003, "Latitude": "4-54S", "Longitude": "154-17E", "Flag of Aggressor": "United States", "Type of Aggression": "Submarine", "Assessment": "Sunk", "URL": null }, "geometry": { "type": "Point", "coordinates": [ 154.283333333333331, -4.9 ] } },
{ "type": "Feature", "properties": { "Month": "December", "Day": 20, "Year": 1942, "Name of Vessel": "UNKNOWN MARU", "Type of Vessel": "Cargo", "Standard T": 4000, "Latitude": "35-45N", "Longitude": "140-55E", "Flag of Aggressor": "United States", "Type of Aggression": "Navy Mine", "Assessment": "Sunk", "URL": null }, "geometry": { "type": "Point", "coordinates": [ 140.916666666666657, 35.75 ] } },
{ "type": "Feature", "properties": { "Month": "December", "Day": 22, "Year": 1942, "Name of Vessel": "TEIFUKU MARU", "Type of Vessel": "Cargo", "Standard T": 5198, "Latitude": "34-52N", "Longitude": "139-49E", "Flag of Aggressor": "United States", "Type of Aggression": "Submarine", "Assessment": "Sunk", "URL": null }, "geometry": { "type": "Point", "coordinates": [ 139.816666666666663, 34.866666666666667 ] } },
{ "type": "Feature", "properties": { "Month": "December", "Day": 24, "Year": 1942, "Name of Vessel": "TAMA MARU NO 2", "Type of Vessel": "Cargo", "Standard T": 515, "Latitude": "6-15S", "Longitude": "150-10E", "Flag of Aggressor": "United States", "Type of Aggression": "Army Aircraft", "Assessment": "Sunk", "URL": null }, "geometry": { "type": "Point", "coordinates": [ 150.166666666666657, -6.25 ] } },
{ "type": "Feature", "properties": { "Month": "December", "Day": 24, "Year": 1942, "Name of Vessel": "AMAKASU MARU NO 1", "Type of Vessel": "Converted Water carrier", "Standard T": 1913, "Latitude": "19-16N", "Longitude": "166-37E", "Flag of Aggressor": "United States", "Type of Aggression": "Submarine", "Assessment": "Sunk", "URL": null }, "geometry": { "type": "Point", "coordinates": [ 166.616666666666674, 19.266666666666666 ] } },
{ "type": "Feature", "properties": { "Month": "December", "Day": 25, "Year": 1942, "Name of Vessel": "BANSHU MARU NO 2", "Type of Vessel": "Cargo", "Standard T": 1000, "Latitude": "9-00S", "Longitude": "124-00E", "Flag of Aggressor": "United States", "Type of Aggression": "Submarine", "Assessment": "Sunk", "URL": null }, "geometry": { "type": "Point", "coordinates": [ 124.0, -9.0 ] } },
{ "type": "Feature", "properties": { "Month": "December", "Day": 26, "Year": 1942, "Name of Vessel": "IWAMI MARU", "Type of Vessel": "Passenger-Cargo", "Standard T": 773, "Latitude": "8-44S", "Longitude": "158-06E", "Flag of Aggressor": "United States", "Type of Aggression": "Army Aircraft Navy Land-Based Aircraft", "Assessment": "Sunk", "URL": null }, "geometry": { "type": "Point", "coordinates": [ 158.1, -8.733333333333333 ] } },
{ "type": "Feature", "properties": { "Month": "December", "Day": 27, "Year": 1942, "Name of Vessel": "ITALY MARU", "Type of Vessel": "Transport", "Standard T": 5859, "Latitude": "4-15S", "Longitude": "152-10E", "Flag of Aggressor": "United States", "Type of Aggression": "Army Aircraft", "Assessment": "Sunk", "URL": null }, "geometry": { "type": "Point", "coordinates": [ 152.166666666666657, -4.25 ] } },
{ "type": "Feature", "properties": { "Month": "December", "Day": 27, "Year": 1942, "Name of Vessel": "TSURUGISAN MARU", "Type of Vessel": "Cargo", "Standard T": 3108, "Latitude": "4-13S", "Longitude": "152-11E", "Flag of Aggressor": "United States", "Type of Aggression": "Army Aircraft", "Assessment": "Sunk", "URL": null }, "geometry": { "type": "Point", "coordinates": [ 152.183333333333337, -4.216666666666667 ] } },
{ "type": "Feature", "properties": { "Month": "December", "Day": 28, "Year": 1942, "Name of Vessel": "CHOYO MARU", "Type of Vessel": "Cargo", "Standard T": 5388, "Latitude": "24-46N", "Longitude": "120-40E", "Flag of Aggressor": "United States", "Type of Aggression": "Submarine", "Assessment": "Sunk", "URL": null }, "geometry": { "type": "Point", "coordinates": [ 120.666666666666671, 24.766666666666666 ] } },
{ "type": "Feature", "properties": { "Month": "December", "Day": 28, "Year": 1942, "Name of Vessel": "OMI MARU", "Type of Vessel": "Passenger-Cargo", "Standard T": 3393, "Latitude": "6-23N", "Longitude": "160-17E", "Flag of Aggressor": "United States", "Type of Aggression": "Submarine", "Assessment": "Sunk", "URL": null }, "geometry": { "type": "Point", "coordinates": [ 160.283333333333331, 6.383333333333334 ] } },
{ "type": "Feature", "properties": { "Month": "December", "Day": 29, "Year": 1942, "Name of Vessel": "FUKKEN MARU", "Type of Vessel": "Passenger-Cargo", "Standard T": 2558, "Latitude": "20-04N", "Longitude": "109-18E", "Flag of Aggressor": "United States", "Type of Aggression": "Navy Mine*", "Assessment": "Sunk", "URL": null }, "geometry": { "type": "Point", "coordinates": [ 109.3, 20.066666666666666 ] } },
{ "type": "Feature", "properties": { "Month": "December", "Day": 29, "Year": 1942, "Name of Vessel": "AZUSA MARU", "Type of Vessel": "Cargo", "Standard T": 540, "Latitude": "8-39S", "Longitude": "158-00E", "Flag of Aggressor": "United States", "Type of Aggression": "Army Aircraft Marine Land-Based Aircraft", "Assessment": "Sunk", "URL": null }, "geometry": { "type": "Point", "coordinates": [ 158.0, -8.65 ] } },
{ "type": "Feature", "properties": { "Month": "December", "Day": 29, "Year": 1942, "Name of Vessel": "HACHIAN MARU", "Type of Vessel": "Cargo", "Standard T": 2733, "Latitude": "4-45S", "Longitude": "113-54E", "Flag of Aggressor": "United States", "Type of Aggression": "Submarine", "Assessment": "Sunk", "URL": null }, "geometry": { "type": "Point", "coordinates": [ 113.9, -4.75 ] } },
{ "type": "Feature", "properties": { "Month": "December", "Day": 30, "Year": 1942, "Name of Vessel": "TOMIURA MARU", "Type of Vessel": "Passenger-Cargo", "Standard T": 3821, "Latitude": "4-15S", "Longitude": "152-10E", "Flag of Aggressor": "United States", "Type of Aggression": "Army Aircraft", "Assessment": "Sunk", "URL": null }, "geometry": { "type": "Point", "coordinates": [ 152.166666666666657, -4.25 ] } },
{ "type": "Feature", "properties": { "Month": "December", "Day": 30, "Year": 1942, "Name of Vessel": "URAJIO MARU", "Type of Vessel": "Cargo", "Standard T": 3110, "Latitude": "51-58N", "Longitude": "177-33E", "Flag of Aggressor": "United States", "Type of Aggression": "Army Aircraft", "Assessment": "Sunk", "URL": null }, "geometry": { "type": "Point", "coordinates": [ 177.55, 51.966666666666669 ] } },
{ "type": "Feature", "properties": { "Month": "December", "Day": 30, "Year": 1942, "Name of Vessel": "UNKNOWN MARU", "Type of Vessel": "Cargo", "Standard T": 4000, "Latitude": "00-41N", "Longitude": "148-52E", "Flag of Aggressor": "United States", "Type of Aggression": "Submarine", "Assessment": "Sunk", "URL": null }, "geometry": { "type": "Point", "coordinates": [ 148.866666666666674, 0.683333333333333 ] } },
{ "type": "Feature", "properties": { "Month": "December", "Day": 30, "Year": 1942, "Name of Vessel": "HITERU MARU", "Type of Vessel": "Cargo", "Standard T": 5857, "Latitude": "00-41N", "Longitude": "148-52E", "Flag of Aggressor": "United States", "Type of Aggression": "Submarine", "Assessment": "Sunk", "URL": null }, "geometry": { "type": "Point", "coordinates": [ 148.866666666666674, 0.683333333333333 ] } }
]
}
